{
"type": "FeatureCollection",
"name": "uttarakhand_earthquakes_synthetic",
"crs": { "type": "name", "properties": { "name": "urn:ogc:def:crs:OGC:1.3:CRS84" } },
"features": [
{ "type": "Feature", "properties": { "earthquake_id": "SYN-UK-0001", "event_date": "1947-06-09", "year": 1947, "magnitude": 5.6, "depth_km": 40.7, "source": "Synthetic / simulated data", "historical_status": "NOT VERIFIED HISTORICAL RECORD", "purpose": "GIS demonstration only" }, "geometry": { "type": "Point", "coordinates": [ 77.788231235623641, 29.904462505289295 ] } },
{ "type": "Feature", "properties": { "earthquake_id": "SYN-UK-0002", "event_date": "1940-02-03", "year": 1940, "magnitude": 3.5, "depth_km": 37.4, "source": "Synthetic / simulated data", "historical_status": "NOT VERIFIED HISTORICAL RECORD", "purpose": "GIS demonstration only" }, "geometry": { "type": "Point", "coordinates": [ 79.222313031441161, 29.269093164615679 ] } },
{ "type": "Feature", "properties": { "earthquake_id": "SYN-UK-0003", "event_date": "2011-02-08", "year": 2011, "magnitude": 4.0, "depth_km": 18.2, "source": "Synthetic / simulated data", "historical_status": "NOT VERIFIED HISTORICAL RECORD", "purpose": "GIS demonstration only" }, "geometry": { "type": "Point", "coordinates": [ 80.739919920904342, 30.119159011666287 ] } },
{ "type": "Feature", "properties": { "earthquake_id": "SYN-UK-0004", "event_date": "1945-01-19", "year": 1945, "magnitude": 4.0, "depth_km": 17.6, "source": "Synthetic / simulated data", "historical_status": "NOT VERIFIED HISTORICAL RECORD", "purpose": "GIS demonstration only" }, "geometry": { "type": "Point", "coordinates": [ 80.125667661348828, 30.695142144285729 ] } },
{ "type": "Feature", "properties": { "earthquake_id": "SYN-UK-0005", "event_date": "1938-06-30", "year": 1938, "magnitude": 4.9, "depth_km": 21.7, "source": "Synthetic / simulated data", "historical_status": "NOT VERIFIED HISTORICAL RECORD", "purpose": "GIS demonstration only" }, "geometry": { "type": "Point", "coordinates": [ 80.116960156869794, 29.888153975665936 ] } },
{ "type": "Feature", "properties": { "earthquake_id": "SYN-UK-0006", "event_date": "1933-10-18", "year": 1933, "magnitude": 4.1, "depth_km": 29.6, "source": "Synthetic / simulated data", "historical_status": "NOT VERIFIED HISTORICAL RECORD", "purpose": "GIS demonstration only" }, "geometry": { "type": "Point", "coordinates": [ 78.301374290131506, 29.873676352397279 ] } },
{ "type": "Feature", "properties": { "earthquake_id": "SYN-UK-0007", "event_date": "1963-12-06", "year": 1963, "magnitude": 4.9, "depth_km": 28.3, "source": "Synthetic / simulated data", "historical_status": "NOT VERIFIED HISTORICAL RECORD", "purpose": "GIS demonstration only" }, "geometry": { "type": "Point", "coordinates": [ 79.327111832744492, 31.014473199946536 ] } },
{ "type": "Feature", "properties": { "earthquake_id": "SYN-UK-0008", "event_date": "1995-02-24", "year": 1995, "magnitude": 3.4, "depth_km": 40.9, "source": "Synthetic / simulated data", "historical_status": "NOT VERIFIED HISTORICAL RECORD", "purpose": "GIS demonstration only" }, "geometry": { "type": "Point", "coordinates": [ 79.260385370501282, 29.953421087265877 ] } },
{ "type": "Feature", "properties": { "earthquake_id": "SYN-UK-0009", "event_date": "1937-02-17", "year": 1937, "magnitude": 3.1, "depth_km": 14.3, "source": "Synthetic / simulated data", "historical_status": "NOT VERIFIED HISTORICAL RECORD", "purpose": "GIS demonstration only" }, "geometry": { "type": "Point", "coordinates": [ 77.874150095022827, 30.349895173706994 ] } },
{ "type": "Feature", "properties": { "earthquake_id": "SYN-UK-0010", "event_date": "1966-12-16", "year": 1966, "magnitude": 5.3, "depth_km": 14.7, "source": "Synthetic / simulated data", "historical_status": "NOT VERIFIED HISTORICAL RECORD", "purpose": "GIS demonstration only" }, "geometry": { "type": "Point", "coordinates": [ 78.865171978125531, 30.551052726128571 ] } },
{ "type": "Feature", "properties": { "earthquake_id": "SYN-UK-0011", "event_date": "1953-04-04", "year": 1953, "magnitude": 4.2, "depth_km": 41.0, "source": "Synthetic / simulated data", "historical_status": "NOT VERIFIED HISTORICAL RECORD", "purpose": "GIS demonstration only" }, "geometry": { "type": "Point", "coordinates": [ 78.965192774498931, 30.554227908843153 ] } },
{ "type": "Feature", "properties": { "earthquake_id": "SYN-UK-0012", "event_date": "2006-03-13", "year": 2006, "magnitude": 4.3, "depth_km": 6.2, "source": "Synthetic / simulated data", "historical_status": "NOT VERIFIED HISTORICAL RECORD", "purpose": "GIS demonstration only" }, "geometry": { "type": "Point", "coordinates": [ 78.619438925715883, 30.873856291175535 ] } },
{ "type": "Feature", "properties": { "earthquake_id": "SYN-UK-0013", "event_date": "1992-08-03", "year": 1992, "magnitude": 3.3, "depth_km": 7.7, "source": "Synthetic / simulated data", "historical_status": "NOT VERIFIED HISTORICAL RECORD", "purpose": "GIS demonstration only" }, "geometry": { "type": "Point", "coordinates": [ 78.526054028022017, 30.964127802095188 ] } },
{ "type": "Feature", "properties": { "earthquake_id": "SYN-UK-0014", "event_date": "1994-07-21", "year": 1994, "magnitude": 4.7, "depth_km": 6.1, "source": "Synthetic / simulated data", "historical_status": "NOT VERIFIED HISTORICAL RECORD", "purpose": "GIS demonstration only" }, "geometry": { "type": "Point", "coordinates": [ 78.491552815940722, 30.234073888619157 ] } },
{ "type": "Feature", "properties": { "earthquake_id": "SYN-UK-0015", "event_date": "1969-02-23", "year": 1969, "magnitude": 5.4, "depth_km": 18.7, "source": "Synthetic / simulated data", "historical_status": "NOT VERIFIED HISTORICAL RECORD", "purpose": "GIS demonstration only" }, "geometry": { "type": "Point", "coordinates": [ 80.666531997240412, 30.160863761342547 ] } },
{ "type": "Feature", "properties": { "earthquake_id": "SYN-UK-0016", "event_date": "2021-07-19", "year": 2021, "magnitude": 5.9, "depth_km": 38.8, "source": "Synthetic / simulated data", "historical_status": "NOT VERIFIED HISTORICAL RECORD", "purpose": "GIS demonstration only" }, "geometry": { "type": "Point", "coordinates": [ 78.120037502445925, 30.650967140201431 ] } },
{ "type": "Feature", "properties": { "earthquake_id": "SYN-UK-0017", "event_date": "1985-11-19", "year": 1985, "magnitude": 3.9, "depth_km": 37.7, "source": "Synthetic / simulated data", "historical_status": "NOT VERIFIED HISTORICAL RECORD", "purpose": "GIS demonstration only" }, "geometry": { "type": "Point", "coordinates": [ 78.851216115190354, 30.904934880943337 ] } },
{ "type": "Feature", "properties": { "earthquake_id": "SYN-UK-0018", "event_date": "1998-02-21", "year": 1998, "magnitude": 3.1, "depth_km": 7.6, "source": "Synthetic / simulated data", "historical_status": "NOT VERIFIED HISTORICAL RECORD", "purpose": "GIS demonstration only" }, "geometry": { "type": "Point", "coordinates": [ 79.294773054343779, 29.731242663754831 ] } },
{ "type": "Feature", "properties": { "earthquake_id": "SYN-UK-0019", "event_date": "1981-08-26", "year": 1981, "magnitude": 4.5, "depth_km": 20.4, "source": "Synthetic / simulated data", "historical_status": "NOT VERIFIED HISTORICAL RECORD", "purpose": "GIS demonstration only" }, "geometry": { "type": "Point", "coordinates": [ 78.147322524591701, 29.933155361500464 ] } },
{ "type": "Feature", "properties": { "earthquake_id": "SYN-UK-0020", "event_date": "1955-11-27", "year": 1955, "magnitude": 3.0, "depth_km": 37.7, "source": "Synthetic / simulated data", "historical_status": "NOT VERIFIED HISTORICAL RECORD", "purpose": "GIS demonstration only" }, "geometry": { "type": "Point", "coordinates": [ 78.606744356921681, 30.569703168493128 ] } },
{ "type": "Feature", "properties": { "earthquake_id": "SYN-UK-0021", "event_date": "1949-02-16", "year": 1949, "magnitude": 3.8, "depth_km": 21.1, "source": "Synthetic / simulated data", "historical_status": "NOT VERIFIED HISTORICAL RECORD", "purpose": "GIS demonstration only" }, "geometry": { "type": "Point", "coordinates": [ 80.112980357140984, 29.999267046437392 ] } },
{ "type": "Feature", "properties": { "earthquake_id": "SYN-UK-0022", "event_date": "1994-03-25", "year": 1994, "magnitude": 5.3, "depth_km": 39.9, "source": "Synthetic / simulated data", "historical_status": "NOT VERIFIED HISTORICAL RECORD", "purpose": "GIS demonstration only" }, "geometry": { "type": "Point", "coordinates": [ 78.738394641413763, 29.601622771606824 ] } },
{ "type": "Feature", "properties": { "earthquake_id": "SYN-UK-0023", "event_date": "2021-05-20", "year": 2021, "magnitude": 3.2, "depth_km": 21.9, "source": "Synthetic / simulated data", "historical_status": "NOT VERIFIED HISTORICAL RECORD", "purpose": "GIS demonstration only" }, "geometry": { "type": "Point", "coordinates": [ 78.150225779789182, 29.908117220476768 ] } },
{ "type": "Feature", "properties": { "earthquake_id": "SYN-UK-0024", "event_date": "1959-09-23", "year": 1959, "magnitude": 4.6, "depth_km": 23.9, "source": "Synthetic / simulated data", "historical_status": "NOT VERIFIED HISTORICAL RECORD", "purpose": "GIS demonstration only" }, "geometry": { "type": "Point", "coordinates": [ 79.028658814575707, 29.743755953941616 ] } },
{ "type": "Feature", "properties": { "earthquake_id": "SYN-UK-0025", "event_date": "1979-08-22", "year": 1979, "magnitude": 5.0, "depth_km": 15.7, "source": "Synthetic / simulated data", "historical_status": "NOT VERIFIED HISTORICAL RECORD", "purpose": "GIS demonstration only" }, "geometry": { "type": "Point", "coordinates": [ 78.273486695569488, 30.647574741045126 ] } },
{ "type": "Feature", "properties": { "earthquake_id": "SYN-UK-0026", "event_date": "1939-10-25", "year": 1939, "magnitude": 4.1, "depth_km": 16.9, "source": "Synthetic / simulated data", "historical_status": "NOT VERIFIED HISTORICAL RECORD", "purpose": "GIS demonstration only" }, "geometry": { "type": "Point", "coordinates": [ 77.824235957185039, 30.763645383823675 ] } },
{ "type": "Feature", "properties": { "earthquake_id": "SYN-UK-0027", "event_date": "1937-07-08", "year": 1937, "magnitude": 3.5, "depth_km": 42.5, "source": "Synthetic / simulated data", "historical_status": "NOT VERIFIED HISTORICAL RECORD", "purpose": "GIS demonstration only" }, "geometry": { "type": "Point", "coordinates": [ 78.132925296436667, 30.579181872801584 ] } },
{ "type": "Feature", "properties": { "earthquake_id": "SYN-UK-0028", "event_date": "2016-08-08", "year": 2016, "magnitude": 5.6, "depth_km": 10.2, "source": "Synthetic / simulated data", "historical_status": "NOT VERIFIED HISTORICAL RECORD", "purpose": "GIS demonstration only" }, "geometry": { "type": "Point", "coordinates": [ 79.482080074967186, 29.889111849366913 ] } },
{ "type": "Feature", "properties": { "earthquake_id": "SYN-UK-0029", "event_date": "1952-03-21", "year": 1952, "magnitude": 6.0, "depth_km": 10.8, "source": "Synthetic / simulated data", "historical_status": "NOT VERIFIED HISTORICAL RECORD", "purpose": "GIS demonstration only" }, "geometry": { "type": "Point", "coordinates": [ 80.148207119987887, 29.63105786783688 ] } },
{ "type": "Feature", "properties": { "earthquake_id": "SYN-UK-0030", "event_date": "1982-04-14", "year": 1982, "magnitude": 7.1, "depth_km": 37.4, "source": "Synthetic / simulated data", "historical_status": "NOT VERIFIED HISTORICAL RECORD", "purpose": "GIS demonstration only" }, "geometry": { "type": "Point", "coordinates": [ 78.627600732065559, 30.54074883126351 ] } },
{ "type": "Feature", "properties": { "earthquake_id": "SYN-UK-0031", "event_date": "1983-08-26", "year": 1983, "magnitude": 5.3, "depth_km": 10.8, "source": "Synthetic / simulated data", "historical_status": "NOT VERIFIED HISTORICAL RECORD", "purpose": "GIS demonstration only" }, "geometry": { "type": "Point", "coordinates": [ 79.433182271301433, 29.343621334018287 ] } },
{ "type": "Feature", "properties": { "earthquake_id": "SYN-UK-0032", "event_date": "1935-03-16", "year": 1935, "magnitude": 4.9, "depth_km": 17.0, "source": "Synthetic / simulated data", "historical_status": "NOT VERIFIED HISTORICAL RECORD", "purpose": "GIS demonstration only" }, "geometry": { "type": "Point", "coordinates": [ 78.901981274016507, 30.563303817705616 ] } },
{ "type": "Feature", "properties": { "earthquake_id": "SYN-UK-0033", "event_date": "1941-01-06", "year": 1941, "magnitude": 3.4, "depth_km": 7.0, "source": "Synthetic / simulated data", "historical_status": "NOT VERIFIED HISTORICAL RECORD", "purpose": "GIS demonstration only" }, "geometry": { "type": "Point", "coordinates": [ 79.206176576543754, 29.31427226752816 ] } },
{ "type": "Feature", "properties": { "earthquake_id": "SYN-UK-0034", "event_date": "1955-10-19", "year": 1955, "magnitude": 4.0, "depth_km": 9.6, "source": "Synthetic / simulated data", "historical_status": "NOT VERIFIED HISTORICAL RECORD", "purpose": "GIS demonstration only" }, "geometry": { "type": "Point", "coordinates": [ 79.554390035641532, 29.317799712856157 ] } },
{ "type": "Feature", "properties": { "earthquake_id": "SYN-UK-0035", "event_date": "1954-08-27", "year": 1954, "magnitude": 3.2, "depth_km": 36.8, "source": "Synthetic / simulated data", "historical_status": "NOT VERIFIED HISTORICAL RECORD", "purpose": "GIS demonstration only" }, "geometry": { "type": "Point", "coordinates": [ 78.466885957631291, 30.821880592702559 ] } },
{ "type": "Feature", "properties": { "earthquake_id": "SYN-UK-0036", "event_date": "2000-02-03", "year": 2000, "magnitude": 4.2, "depth_km": 36.0, "source": "Synthetic / simulated data", "historical_status": "NOT VERIFIED HISTORICAL RECORD", "purpose": "GIS demonstration only" }, "geometry": { "type": "Point", "coordinates": [ 79.043193792846537, 31.109879482309868 ] } },
{ "type": "Feature", "properties": { "earthquake_id": "SYN-UK-0037", "event_date": "1980-08-10", "year": 1980, "magnitude": 4.5, "depth_km": 7.2, "source": "Synthetic / simulated data", "historical_status": "NOT VERIFIED HISTORICAL RECORD", "purpose": "GIS demonstration only" }, "geometry": { "type": "Point", "coordinates": [ 79.179753541921798, 29.885647460853001 ] } },
{ "type": "Feature", "properties": { "earthquake_id": "SYN-UK-0038", "event_date": "2010-06-28", "year": 2010, "magnitude": 6.1, "depth_km": 23.3, "source": "Synthetic / simulated data", "historical_status": "NOT VERIFIED HISTORICAL RECORD", "purpose": "GIS demonstration only" }, "geometry": { "type": "Point", "coordinates": [ 80.65011023250868, 30.199924095508514 ] } },
{ "type": "Feature", "properties": { "earthquake_id": "SYN-UK-0039", "event_date": "2003-12-21", "year": 2003, "magnitude": 3.8, "depth_km": 22.8, "source": "Synthetic / simulated data", "historical_status": "NOT VERIFIED HISTORICAL RECORD", "purpose": "GIS demonstration only" }, "geometry": { "type": "Point", "coordinates": [ 79.834449055338851, 29.672878989035084 ] } },
{ "type": "Feature", "properties": { "earthquake_id": "SYN-UK-0040", "event_date": "2004-10-24", "year": 2004, "magnitude": 4.6, "depth_km": 11.1, "source": "Synthetic / simulated data", "historical_status": "NOT VERIFIED HISTORICAL RECORD", "purpose": "GIS demonstration only" }, "geometry": { "type": "Point", "coordinates": [ 80.58316199022839, 30.210855610304467 ] } },
{ "type": "Feature", "properties": { "earthquake_id": "SYN-UK-0041", "event_date": "1966-06-28", "year": 1966, "magnitude": 3.6, "depth_km": 12.5, "source": "Synthetic / simulated data", "historical_status": "NOT VERIFIED HISTORICAL RECORD", "purpose": "GIS demonstration only" }, "geometry": { "type": "Point", "coordinates": [ 80.654235788721749, 30.245002105830419 ] } },
{ "type": "Feature", "properties": { "earthquake_id": "SYN-UK-0042", "event_date": "1947-08-06", "year": 1947, "magnitude": 4.1, "depth_km": 20.5, "source": "Synthetic / simulated data", "historical_status": "NOT VERIFIED HISTORICAL RECORD", "purpose": "GIS demonstration only" }, "geometry": { "type": "Point", "coordinates": [ 79.183389051914702, 30.025040951469169 ] } },
{ "type": "Feature", "properties": { "earthquake_id": "SYN-UK-0043", "event_date": "1984-02-04", "year": 1984, "magnitude": 4.7, "depth_km": 38.6, "source": "Synthetic / simulated data", "historical_status": "NOT VERIFIED HISTORICAL RECORD", "purpose": "GIS demonstration only" }, "geometry": { "type": "Point", "coordinates": [ 80.049859307522169, 29.397931062437593 ] } },
{ "type": "Feature", "properties": { "earthquake_id": "SYN-UK-0044", "event_date": "1937-12-28", "year": 1937, "magnitude": 3.3, "depth_km": 16.0, "source": "Synthetic / simulated data", "historical_status": "NOT VERIFIED HISTORICAL RECORD", "purpose": "GIS demonstration only" }, "geometry": { "type": "Point", "coordinates": [ 79.177561166359695, 30.187794149261059 ] } },
{ "type": "Feature", "properties": { "earthquake_id": "SYN-UK-0045", "event_date": "1941-10-24", "year": 1941, "magnitude": 5.1, "depth_km": 11.9, "source": "Synthetic / simulated data", "historical_status": "NOT VERIFIED HISTORICAL RECORD", "purpose": "GIS demonstration only" }, "geometry": { "type": "Point", "coordinates": [ 79.303343781259642, 29.401048534816709 ] } },
{ "type": "Feature", "properties": { "earthquake_id": "SYN-UK-0046", "event_date": "1982-05-22", "year": 1982, "magnitude": 3.0, "depth_km": 31.6, "source": "Synthetic / simulated data", "historical_status": "NOT VERIFIED HISTORICAL RECORD", "purpose": "GIS demonstration only" }, "geometry": { "type": "Point", "coordinates": [ 78.698599396132366, 30.237832932581188 ] } },
{ "type": "Feature", "properties": { "earthquake_id": "SYN-UK-0047", "event_date": "2008-06-07", "year": 2008, "magnitude": 3.8, "depth_km": 44.9, "source": "Synthetic / simulated data", "historical_status": "NOT VERIFIED HISTORICAL RECORD", "purpose": "GIS demonstration only" }, "geometry": { "type": "Point", "coordinates": [ 79.782346596201805, 30.395940470070528 ] } },
{ "type": "Feature", "properties": { "earthquake_id": "SYN-UK-0048", "event_date": "1947-12-25", "year": 1947, "magnitude": 7.1, "depth_km": 43.3, "source": "Synthetic / simulated data", "historical_status": "NOT VERIFIED HISTORICAL RECORD", "purpose": "GIS demonstration only" }, "geometry": { "type": "Point", "coordinates": [ 79.388886940721889, 29.104695297507593 ] } },
{ "type": "Feature", "properties": { "earthquake_id": "SYN-UK-0049", "event_date": "1931-08-10", "year": 1931, "magnitude": 4.5, "depth_km": 39.0, "source": "Synthetic / simulated data", "historical_status": "NOT VERIFIED HISTORICAL RECORD", "purpose": "GIS demonstration only" }, "geometry": { "type": "Point", "coordinates": [ 78.462318907343146, 30.34162865840036 ] } },
{ "type": "Feature", "properties": { "earthquake_id": "SYN-UK-0050", "event_date": "1940-10-22", "year": 1940, "magnitude": 3.2, "depth_km": 22.6, "source": "Synthetic / simulated data", "historical_status": "NOT VERIFIED HISTORICAL RECORD", "purpose": "GIS demonstration only" }, "geometry": { "type": "Point", "coordinates": [ 78.647964009304957, 30.206144270725741 ] } },
{ "type": "Feature", "properties": { "earthquake_id": "SYN-UK-0051", "event_date": "1987-10-02", "year": 1987, "magnitude": 4.0, "depth_km": 22.0, "source": "Synthetic / simulated data", "historical_status": "NOT VERIFIED HISTORICAL RECORD", "purpose": "GIS demonstration only" }, "geometry": { "type": "Point", "coordinates": [ 78.353960610658106, 30.873019641436194 ] } },
{ "type": "Feature", "properties": { "earthquake_id": "SYN-UK-0052", "event_date": "1976-11-09", "year": 1976, "magnitude": 3.2, "depth_km": 16.2, "source": "Synthetic / simulated data", "historical_status": "NOT VERIFIED HISTORICAL RECORD", "purpose": "GIS demonstration only" }, "geometry": { "type": "Point", "coordinates": [ 80.357083557843822, 30.525221376354299 ] } },
{ "type": "Feature", "properties": { "earthquake_id": "SYN-UK-0053", "event_date": "2014-08-23", "year": 2014, "magnitude": 3.9, "depth_km": 17.5, "source": "Synthetic / simulated data", "historical_status": "NOT VERIFIED HISTORICAL RECORD", "purpose": "GIS demonstration only" }, "geometry": { "type": "Point", "coordinates": [ 78.559211191391654, 31.084037001729534 ] } },
{ "type": "Feature", "properties": { "earthquake_id": "SYN-UK-0054", "event_date": "1936-06-24", "year": 1936, "magnitude": 4.1, "depth_km": 43.2, "source": "Synthetic / simulated data", "historical_status": "NOT VERIFIED HISTORICAL RECORD", "purpose": "GIS demonstration only" }, "geometry": { "type": "Point", "coordinates": [ 79.096268270288476, 30.974073739417157 ] } },
{ "type": "Feature", "properties": { "earthquake_id": "SYN-UK-0055", "event_date": "2018-12-14", "year": 2018, "magnitude": 3.9, "depth_km": 27.3, "source": "Synthetic / simulated data", "historical_status": "NOT VERIFIED HISTORICAL RECORD", "purpose": "GIS demonstration only" }, "geometry": { "type": "Point", "coordinates": [ 79.766251823726535, 29.898180766217152 ] } },
{ "type": "Feature", "properties": { "earthquake_id": "SYN-UK-0056", "event_date": "1993-11-03", "year": 1993, "magnitude": 6.4, "depth_km": 12.6, "source": "Synthetic / simulated data", "historical_status": "NOT VERIFIED HISTORICAL RECORD", "purpose": "GIS demonstration only" }, "geometry": { "type": "Point", "coordinates": [ 78.018409574214402, 30.828978070668761 ] } },
{ "type": "Feature", "properties": { "earthquake_id": "SYN-UK-0057", "event_date": "1932-06-19", "year": 1932, "magnitude": 3.7, "depth_km": 32.5, "source": "Synthetic / simulated data", "historical_status": "NOT VERIFIED HISTORICAL RECORD", "purpose": "GIS demonstration only" }, "geometry": { "type": "Point", "coordinates": [ 79.985397208426917, 28.910168646082344 ] } },
{ "type": "Feature", "properties": { "earthquake_id": "SYN-UK-0058", "event_date": "1936-09-16", "year": 1936, "magnitude": 3.5, "depth_km": 44.6, "source": "Synthetic / simulated data", "historical_status": "NOT VERIFIED HISTORICAL RECORD", "purpose": "GIS demonstration only" }, "geometry": { "type": "Point", "coordinates": [ 78.134495220877511, 30.271825990822361 ] } },
{ "type": "Feature", "properties": { "earthquake_id": "SYN-UK-0059", "event_date": "2019-07-02", "year": 2019, "magnitude": 5.8, "depth_km": 37.6, "source": "Synthetic / simulated data", "historical_status": "NOT VERIFIED HISTORICAL RECORD", "purpose": "GIS demonstration only" }, "geometry": { "type": "Point", "coordinates": [ 79.446723056067668, 30.05458321809741 ] } },
{ "type": "Feature", "properties": { "earthquake_id": "SYN-UK-0060", "event_date": "2025-06-15", "year": 2025, "magnitude": 3.7, "depth_km": 20.6, "source": "Synthetic / simulated data", "historical_status": "NOT VERIFIED HISTORICAL RECORD", "purpose": "GIS demonstration only" }, "geometry": { "type": "Point", "coordinates": [ 79.252963827276915, 29.372307270102461 ] } },
{ "type": "Feature", "properties": { "earthquake_id": "SYN-UK-0061", "event_date": "1966-08-02", "year": 1966, "magnitude": 4.0, "depth_km": 43.0, "source": "Synthetic / simulated data", "historical_status": "NOT VERIFIED HISTORICAL RECORD", "purpose": "GIS demonstration only" }, "geometry": { "type": "Point", "coordinates": [ 79.431840612220128, 30.963183971393523 ] } },
{ "type": "Feature", "properties": { "earthquake_id": "SYN-UK-0062", "event_date": "1936-07-15", "year": 1936, "magnitude": 4.6, "depth_km": 18.2, "source": "Synthetic / simulated data", "historical_status": "NOT VERIFIED HISTORICAL RECORD", "purpose": "GIS demonstration only" }, "geometry": { "type": "Point", "coordinates": [ 79.874148065736179, 29.655436554705247 ] } },
{ "type": "Feature", "properties": { "earthquake_id": "SYN-UK-0063", "event_date": "1937-03-03", "year": 1937, "magnitude": 3.7, "depth_km": 45.0, "source": "Synthetic / simulated data", "historical_status": "NOT VERIFIED HISTORICAL RECORD", "purpose": "GIS demonstration only" }, "geometry": { "type": "Point", "coordinates": [ 79.90129179888234, 30.284820059839909 ] } },
{ "type": "Feature", "properties": { "earthquake_id": "SYN-UK-0064", "event_date": "1986-08-04", "year": 1986, "magnitude": 3.1, "depth_km": 6.4, "source": "Synthetic / simulated data", "historical_status": "NOT VERIFIED HISTORICAL RECORD", "purpose": "GIS demonstration only" }, "geometry": { "type": "Point", "coordinates": [ 78.869117961007433, 30.203794528103742 ] } },
{ "type": "Feature", "properties": { "earthquake_id": "SYN-UK-0065", "event_date": "1984-02-28", "year": 1984, "magnitude": 4.6, "depth_km": 27.8, "source": "Synthetic / simulated data", "historical_status": "NOT VERIFIED HISTORICAL RECORD", "purpose": "GIS demonstration only" }, "geometry": { "type": "Point", "coordinates": [ 79.105721470988755, 29.979034901238521 ] } },
{ "type": "Feature", "properties": { "earthquake_id": "SYN-UK-0066", "event_date": "1933-09-09", "year": 1933, "magnitude": 3.9, "depth_km": 22.6, "source": "Synthetic / simulated data", "historical_status": "NOT VERIFIED HISTORICAL RECORD", "purpose": "GIS demonstration only" }, "geometry": { "type": "Point", "coordinates": [ 78.93344737272561, 29.855787649586716 ] } },
{ "type": "Feature", "properties": { "earthquake_id": "SYN-UK-0067", "event_date": "1937-06-26", "year": 1937, "magnitude": 3.4, "depth_km": 17.3, "source": "Synthetic / simulated data", "historical_status": "NOT VERIFIED HISTORICAL RECORD", "purpose": "GIS demonstration only" }, "geometry": { "type": "Point", "coordinates": [ 79.281087783645049, 30.107990879534775 ] } },
{ "type": "Feature", "properties": { "earthquake_id": "SYN-UK-0068", "event_date": "1954-06-09", "year": 1954, "magnitude": 3.9, "depth_km": 28.3, "source": "Synthetic / simulated data", "historical_status": "NOT VERIFIED HISTORICAL RECORD", "purpose": "GIS demonstration only" }, "geometry": { "type": "Point", "coordinates": [ 80.526206504158438, 30.009822635362386 ] } },
{ "type": "Feature", "properties": { "earthquake_id": "SYN-UK-0069", "event_date": "2014-03-23", "year": 2014, "magnitude": 4.5, "depth_km": 38.6, "source": "Synthetic / simulated data", "historical_status": "NOT VERIFIED HISTORICAL RECORD", "purpose": "GIS demonstration only" }, "geometry": { "type": "Point", "coordinates": [ 78.95719750527374, 29.330742255422543 ] } },
{ "type": "Feature", "properties": { "earthquake_id": "SYN-UK-0070", "event_date": "1934-03-16", "year": 1934, "magnitude": 3.4, "depth_km": 13.2, "source": "Synthetic / simulated data", "historical_status": "NOT VERIFIED HISTORICAL RECORD", "purpose": "GIS demonstration only" }, "geometry": { "type": "Point", "coordinates": [ 78.677371208980929, 29.70659969531922 ] } },
{ "type": "Feature", "properties": { "earthquake_id": "SYN-UK-0071", "event_date": "1989-12-14", "year": 1989, "magnitude": 4.1, "depth_km": 5.3, "source": "Synthetic / simulated data", "historical_status": "NOT VERIFIED HISTORICAL RECORD", "purpose": "GIS demonstration only" }, "geometry": { "type": "Point", "coordinates": [ 78.789831141436821, 29.476237864852184 ] } },
{ "type": "Feature", "properties": { "earthquake_id": "SYN-UK-0072", "event_date": "2004-02-02", "year": 2004, "magnitude": 3.6, "depth_km": 20.5, "source": "Synthetic / simulated data", "historical_status": "NOT VERIFIED HISTORICAL RECORD", "purpose": "GIS demonstration only" }, "geometry": { "type": "Point", "coordinates": [ 78.828024546612326, 29.310931379799136 ] } },
{ "type": "Feature", "properties": { "earthquake_id": "SYN-UK-0073", "event_date": "1997-05-09", "year": 1997, "magnitude": 4.3, "depth_km": 33.4, "source": "Synthetic / simulated data", "historical_status": "NOT VERIFIED HISTORICAL RECORD", "purpose": "GIS demonstration only" }, "geometry": { "type": "Point", "coordinates": [ 79.878630656905543, 29.748366333093657 ] } },
{ "type": "Feature", "properties": { "earthquake_id": "SYN-UK-0074", "event_date": "1936-09-12", "year": 1936, "magnitude": 4.0, "depth_km": 43.2, "source": "Synthetic / simulated data", "historical_status": "NOT VERIFIED HISTORICAL RECORD", "purpose": "GIS demonstration only" }, "geometry": { "type": "Point", "coordinates": [ 79.470822581510191, 29.546848625110762 ] } },
{ "type": "Feature", "properties": { "earthquake_id": "SYN-UK-0075", "event_date": "1953-07-08", "year": 1953, "magnitude": 4.7, "depth_km": 25.3, "source": "Synthetic / simulated data", "historical_status": "NOT VERIFIED HISTORICAL RECORD", "purpose": "GIS demonstration only" }, "geometry": { "type": "Point", "coordinates": [ 79.917983949291653, 29.000512275979897 ] } },
{ "type": "Feature", "properties": { "earthquake_id": "SYN-UK-0076", "event_date": "1949-06-12", "year": 1949, "magnitude": 3.4, "depth_km": 26.5, "source": "Synthetic / simulated data", "historical_status": "NOT VERIFIED HISTORICAL RECORD", "purpose": "GIS demonstration only" }, "geometry": { "type": "Point", "coordinates": [ 78.156368005075421, 30.142279427710033 ] } },
{ "type": "Feature", "properties": { "earthquake_id": "SYN-UK-0077", "event_date": "2006-01-17", "year": 2006, "magnitude": 4.3, "depth_km": 20.1, "source": "Synthetic / simulated data", "historical_status": "NOT VERIFIED HISTORICAL RECORD", "purpose": "GIS demonstration only" }, "geometry": { "type": "Point", "coordinates": [ 78.79242364601555, 30.258701540548557 ] } },
{ "type": "Feature", "properties": { "earthquake_id": "SYN-UK-0078", "event_date": "1971-04-22", "year": 1971, "magnitude": 3.1, "depth_km": 42.8, "source": "Synthetic / simulated data", "historical_status": "NOT VERIFIED HISTORICAL RECORD", "purpose": "GIS demonstration only" }, "geometry": { "type": "Point", "coordinates": [ 79.928672589356964, 29.713242911097431 ] } },
{ "type": "Feature", "properties": { "earthquake_id": "SYN-UK-0079", "event_date": "1964-11-08", "year": 1964, "magnitude": 4.5, "depth_km": 31.5, "source": "Synthetic / simulated data", "historical_status": "NOT VERIFIED HISTORICAL RECORD", "purpose": "GIS demonstration only" }, "geometry": { "type": "Point", "coordinates": [ 77.865724906862752, 29.985672666123289 ] } },
{ "type": "Feature", "properties": { "earthquake_id": "SYN-UK-0080", "event_date": "1988-08-19", "year": 1988, "magnitude": 5.1, "depth_km": 36.5, "source": "Synthetic / simulated data", "historical_status": "NOT VERIFIED HISTORICAL RECORD", "purpose": "GIS demonstration only" }, "geometry": { "type": "Point", "coordinates": [ 78.332744866708865, 30.428379289868094 ] } },
{ "type": "Feature", "properties": { "earthquake_id": "SYN-UK-0081", "event_date": "1928-03-08", "year": 1928, "magnitude": 3.1, "depth_km": 25.8, "source": "Synthetic / simulated data", "historical_status": "NOT VERIFIED HISTORICAL RECORD", "purpose": "GIS demonstration only" }, "geometry": { "type": "Point", "coordinates": [ 79.284318214278031, 30.639943289085437 ] } },
{ "type": "Feature", "properties": { "earthquake_id": "SYN-UK-0082", "event_date": "1940-06-26", "year": 1940, "magnitude": 3.2, "depth_km": 36.2, "source": "Synthetic / simulated data", "historical_status": "NOT VERIFIED HISTORICAL RECORD", "purpose": "GIS demonstration only" }, "geometry": { "type": "Point", "coordinates": [ 79.821491604123167, 30.72468194957737 ] } },
{ "type": "Feature", "properties": { "earthquake_id": "SYN-UK-0083", "event_date": "1948-08-21", "year": 1948, "magnitude": 3.8, "depth_km": 22.6, "source": "Synthetic / simulated data", "historical_status": "NOT VERIFIED HISTORICAL RECORD", "purpose": "GIS demonstration only" }, "geometry": { "type": "Point", "coordinates": [ 79.427546006131251, 29.15661221493276 ] } },
{ "type": "Feature", "properties": { "earthquake_id": "SYN-UK-0084", "event_date": "1944-09-12", "year": 1944, "magnitude": 3.3, "depth_km": 33.4, "source": "Synthetic / simulated data", "historical_status": "NOT VERIFIED HISTORICAL RECORD", "purpose": "GIS demonstration only" }, "geometry": { "type": "Point", "coordinates": [ 80.044830786871813, 30.295046361474288 ] } },
{ "type": "Feature", "properties": { "earthquake_id": "SYN-UK-0085", "event_date": "1980-01-11", "year": 1980, "magnitude": 3.1, "depth_km": 42.6, "source": "Synthetic / simulated data", "historical_status": "NOT VERIFIED HISTORICAL RECORD", "purpose": "GIS demonstration only" }, "geometry": { "type": "Point", "coordinates": [ 79.804151248995481, 28.964652154884682 ] } },
{ "type": "Feature", "properties": { "earthquake_id": "SYN-UK-0086", "event_date": "1936-03-18", "year": 1936, "magnitude": 3.2, "depth_km": 44.6, "source": "Synthetic / simulated data", "historical_status": "NOT VERIFIED HISTORICAL RECORD", "purpose": "GIS demonstration only" }, "geometry": { "type": "Point", "coordinates": [ 79.446441561314671, 29.836279208113979 ] } },
{ "type": "Feature", "properties": { "earthquake_id": "SYN-UK-0087", "event_date": "1941-09-25", "year": 1941, "magnitude": 5.8, "depth_km": 34.5, "source": "Synthetic / simulated data", "historical_status": "NOT VERIFIED HISTORICAL RECORD", "purpose": "GIS demonstration only" }, "geometry": { "type": "Point", "coordinates": [ 79.949358674551959, 29.515805753220796 ] } },
{ "type": "Feature", "properties": { "earthquake_id": "SYN-UK-0088", "event_date": "1951-10-08", "year": 1951, "magnitude": 6.9, "depth_km": 16.1, "source": "Synthetic / simulated data", "historical_status": "NOT VERIFIED HISTORICAL RECORD", "purpose": "GIS demonstration only" }, "geometry": { "type": "Point", "coordinates": [ 78.733732448486634, 31.160714421707734 ] } },
{ "type": "Feature", "properties": { "earthquake_id": "SYN-UK-0089", "event_date": "1939-03-10", "year": 1939, "magnitude": 3.7, "depth_km": 13.6, "source": "Synthetic / simulated data", "historical_status": "NOT VERIFIED HISTORICAL RECORD", "purpose": "GIS demonstration only" }, "geometry": { "type": "Point", "coordinates": [ 79.692916322157501, 30.179882549694323 ] } },
{ "type": "Feature", "properties": { "earthquake_id": "SYN-UK-0090", "event_date": "1967-05-04", "year": 1967, "magnitude": 4.4, "depth_km": 32.0, "source": "Synthetic / simulated data", "historical_status": "NOT VERIFIED HISTORICAL RECORD", "purpose": "GIS demonstration only" }, "geometry": { "type": "Point", "coordinates": [ 79.512293774331923, 30.70879428103397 ] } },
{ "type": "Feature", "properties": { "earthquake_id": "SYN-UK-0091", "event_date": "2012-02-21", "year": 2012, "magnitude": 4.2, "depth_km": 16.5, "source": "Synthetic / simulated data", "historical_status": "NOT VERIFIED HISTORICAL RECORD", "purpose": "GIS demonstration only" }, "geometry": { "type": "Point", "coordinates": [ 78.7926836687747, 30.793519639308283 ] } },
{ "type": "Feature", "properties": { "earthquake_id": "SYN-UK-0092", "event_date": "1940-06-13", "year": 1940, "magnitude": 4.6, "depth_km": 32.6, "source": "Synthetic / simulated data", "historical_status": "NOT VERIFIED HISTORICAL RECORD", "purpose": "GIS demonstration only" }, "geometry": { "type": "Point", "coordinates": [ 78.482766883405716, 30.131114151318897 ] } },
{ "type": "Feature", "properties": { "earthquake_id": "SYN-UK-0093", "event_date": "1965-01-22", "year": 1965, "magnitude": 5.5, "depth_km": 37.8, "source": "Synthetic / simulated data", "historical_status": "NOT VERIFIED HISTORICAL RECORD", "purpose": "GIS demonstration only" }, "geometry": { "type": "Point", "coordinates": [ 80.020357060295524, 30.350116619110967 ] } },
{ "type": "Feature", "properties": { "earthquake_id": "SYN-UK-0094", "event_date": "1970-05-30", "year": 1970, "magnitude": 5.0, "depth_km": 26.5, "source": "Synthetic / simulated data", "historical_status": "NOT VERIFIED HISTORICAL RECORD", "purpose": "GIS demonstration only" }, "geometry": { "type": "Point", "coordinates": [ 78.652947036990724, 31.035568647342668 ] } },
{ "type": "Feature", "properties": { "earthquake_id": "SYN-UK-0095", "event_date": "1956-05-29", "year": 1956, "magnitude": 3.3, "depth_km": 44.0, "source": "Synthetic / simulated data", "historical_status": "NOT VERIFIED HISTORICAL RECORD", "purpose": "GIS demonstration only" }, "geometry": { "type": "Point", "coordinates": [ 79.827399615890357, 29.018934044993749 ] } },
{ "type": "Feature", "properties": { "earthquake_id": "SYN-UK-0096", "event_date": "1986-01-15", "year": 1986, "magnitude": 5.0, "depth_km": 11.6, "source": "Synthetic / simulated data", "historical_status": "NOT VERIFIED HISTORICAL RECORD", "purpose": "GIS demonstration only" }, "geometry": { "type": "Point", "coordinates": [ 79.47108667063172, 30.198344709710767 ] } },
{ "type": "Feature", "properties": { "earthquake_id": "SYN-UK-0097", "event_date": "1964-04-30", "year": 1964, "magnitude": 3.0, "depth_km": 23.8, "source": "Synthetic / simulated data", "historical_status": "NOT VERIFIED HISTORICAL RECORD", "purpose": "GIS demonstration only" }, "geometry": { "type": "Point", "coordinates": [ 79.893564209182614, 30.768256198634681 ] } },
{ "type": "Feature", "properties": { "earthquake_id": "SYN-UK-0098", "event_date": "2009-03-12", "year": 2009, "magnitude": 3.4, "depth_km": 22.2, "source": "Synthetic / simulated data", "historical_status": "NOT VERIFIED HISTORICAL RECORD", "purpose": "GIS demonstration only" }, "geometry": { "type": "Point", "coordinates": [ 78.137992385450531, 30.992237124858232 ] } },
{ "type": "Feature", "properties": { "earthquake_id": "SYN-UK-0099", "event_date": "1934-07-04", "year": 1934, "magnitude": 3.5, "depth_km": 12.9, "source": "Synthetic / simulated data", "historical_status": "NOT VERIFIED HISTORICAL RECORD", "purpose": "GIS demonstration only" }, "geometry": { "type": "Point", "coordinates": [ 78.897101807891374, 30.160823258772005 ] } },
{ "type": "Feature", "properties": { "earthquake_id": "SYN-UK-0100", "event_date": "1997-05-09", "year": 1997, "magnitude": 3.6, "depth_km": 27.7, "source": "Synthetic / simulated data", "historical_status": "NOT VERIFIED HISTORICAL RECORD", "purpose": "GIS demonstration only" }, "geometry": { "type": "Point", "coordinates": [ 77.86278282937964, 30.332422878450529 ] } },
{ "type": "Feature", "properties": { "earthquake_id": "SYN-UK-0101", "event_date": "2001-01-27", "year": 2001, "magnitude": 3.9, "depth_km": 30.6, "source": "Synthetic / simulated data", "historical_status": "NOT VERIFIED HISTORICAL RECORD", "purpose": "GIS demonstration only" }, "geometry": { "type": "Point", "coordinates": [ 79.801141659612512, 28.890449546452512 ] } },
{ "type": "Feature", "properties": { "earthquake_id": "SYN-UK-0102", "event_date": "1981-09-09", "year": 1981, "magnitude": 6.7, "depth_km": 10.6, "source": "Synthetic / simulated data", "historical_status": "NOT VERIFIED HISTORICAL RECORD", "purpose": "GIS demonstration only" }, "geometry": { "type": "Point", "coordinates": [ 78.643517627674925, 30.594706403150724 ] } },
{ "type": "Feature", "properties": { "earthquake_id": "SYN-UK-0103", "event_date": "1944-05-30", "year": 1944, "magnitude": 5.6, "depth_km": 24.1, "source": "Synthetic / simulated data", "historical_status": "NOT VERIFIED HISTORICAL RECORD", "purpose": "GIS demonstration only" }, "geometry": { "type": "Point", "coordinates": [ 79.078474916161866, 31.169661137782349 ] } },
{ "type": "Feature", "properties": { "earthquake_id": "SYN-UK-0104", "event_date": "1972-04-11", "year": 1972, "magnitude": 3.6, "depth_km": 38.3, "source": "Synthetic / simulated data", "historical_status": "NOT VERIFIED HISTORICAL RECORD", "purpose": "GIS demonstration only" }, "geometry": { "type": "Point", "coordinates": [ 77.991678791397717, 30.802917579055944 ] } },
{ "type": "Feature", "properties": { "earthquake_id": "SYN-UK-0105", "event_date": "2002-06-01", "year": 2002, "magnitude": 3.4, "depth_km": 11.6, "source": "Synthetic / simulated data", "historical_status": "NOT VERIFIED HISTORICAL RECORD", "purpose": "GIS demonstration only" }, "geometry": { "type": "Point", "coordinates": [ 79.687664252434644, 30.762738140858602 ] } },
{ "type": "Feature", "properties": { "earthquake_id": "SYN-UK-0106", "event_date": "1993-04-30", "year": 1993, "magnitude": 3.4, "depth_km": 32.5, "source": "Synthetic / simulated data", "historical_status": "NOT VERIFIED HISTORICAL RECORD", "purpose": "GIS demonstration only" }, "geometry": { "type": "Point", "coordinates": [ 78.71645583152123, 29.652524578335424 ] } },
{ "type": "Feature", "properties": { "earthquake_id": "SYN-UK-0107", "event_date": "2001-06-19", "year": 2001, "magnitude": 3.9, "depth_km": 43.6, "source": "Synthetic / simulated data", "historical_status": "NOT VERIFIED HISTORICAL RECORD", "purpose": "GIS demonstration only" }, "geometry": { "type": "Point", "coordinates": [ 79.128472895960272, 29.377062235178716 ] } },
{ "type": "Feature", "properties": { "earthquake_id": "SYN-UK-0108", "event_date": "1998-05-29", "year": 1998, "magnitude": 3.6, "depth_km": 29.0, "source": "Synthetic / simulated data", "historical_status": "NOT VERIFIED HISTORICAL RECORD", "purpose": "GIS demonstration only" }, "geometry": { "type": "Point", "coordinates": [ 78.849299271533937, 30.463029862702928 ] } },
{ "type": "Feature", "properties": { "earthquake_id": "SYN-UK-0109", "event_date": "1947-08-22", "year": 1947, "magnitude": 4.2, "depth_km": 30.6, "source": "Synthetic / simulated data", "historical_status": "NOT VERIFIED HISTORICAL RECORD", "purpose": "GIS demonstration only" }, "geometry": { "type": "Point", "coordinates": [ 80.23663772062207, 29.436781780779317 ] } },
{ "type": "Feature", "properties": { "earthquake_id": "SYN-UK-0110", "event_date": "1986-09-04", "year": 1986, "magnitude": 3.4, "depth_km": 13.6, "source": "Synthetic / simulated data", "historical_status": "NOT VERIFIED HISTORICAL RECORD", "purpose": "GIS demonstration only" }, "geometry": { "type": "Point", "coordinates": [ 78.978849481015658, 30.758086702472159 ] } },
{ "type": "Feature", "properties": { "earthquake_id": "SYN-UK-0111", "event_date": "2021-03-28", "year": 2021, "magnitude": 3.5, "depth_km": 28.8, "source": "Synthetic / simulated data", "historical_status": "NOT VERIFIED HISTORICAL RECORD", "purpose": "GIS demonstration only" }, "geometry": { "type": "Point", "coordinates": [ 79.982652103509949, 30.741607797306195 ] } },
{ "type": "Feature", "properties": { "earthquake_id": "SYN-UK-0112", "event_date": "1953-11-27", "year": 1953, "magnitude": 4.0, "depth_km": 38.6, "source": "Synthetic / simulated data", "historical_status": "NOT VERIFIED HISTORICAL RECORD", "purpose": "GIS demonstration only" }, "geometry": { "type": "Point", "coordinates": [ 77.934456667740804, 31.075189352684156 ] } },
{ "type": "Feature", "properties": { "earthquake_id": "SYN-UK-0113", "event_date": "1957-10-31", "year": 1957, "magnitude": 4.1, "depth_km": 33.0, "source": "Synthetic / simulated data", "historical_status": "NOT VERIFIED HISTORICAL RECORD", "purpose": "GIS demonstration only" }, "geometry": { "type": "Point", "coordinates": [ 78.211826233308713, 30.375070300645625 ] } },
{ "type": "Feature", "properties": { "earthquake_id": "SYN-UK-0114", "event_date": "2018-08-23", "year": 2018, "magnitude": 3.8, "depth_km": 23.6, "source": "Synthetic / simulated data", "historical_status": "NOT VERIFIED HISTORICAL RECORD", "purpose": "GIS demonstration only" }, "geometry": { "type": "Point", "coordinates": [ 79.128602256837496, 31.066224639232033 ] } },
{ "type": "Feature", "properties": { "earthquake_id": "SYN-UK-0115", "event_date": "1954-07-13", "year": 1954, "magnitude": 3.6, "depth_km": 41.0, "source": "Synthetic / simulated data", "historical_status": "NOT VERIFIED HISTORICAL RECORD", "purpose": "GIS demonstration only" }, "geometry": { "type": "Point", "coordinates": [ 79.560447410298877, 29.81571584992588 ] } },
{ "type": "Feature", "properties": { "earthquake_id": "SYN-UK-0116", "event_date": "1926-03-12", "year": 1926, "magnitude": 5.0, "depth_km": 36.0, "source": "Synthetic / simulated data", "historical_status": "NOT VERIFIED HISTORICAL RECORD", "purpose": "GIS demonstration only" }, "geometry": { "type": "Point", "coordinates": [ 78.157215723397798, 29.787331344691328 ] } },
{ "type": "Feature", "properties": { "earthquake_id": "SYN-UK-0117", "event_date": "1995-06-28", "year": 1995, "magnitude": 4.8, "depth_km": 31.7, "source": "Synthetic / simulated data", "historical_status": "NOT VERIFIED HISTORICAL RECORD", "purpose": "GIS demonstration only" }, "geometry": { "type": "Point", "coordinates": [ 78.568763017742071, 30.374623963435369 ] } },
{ "type": "Feature", "properties": { "earthquake_id": "SYN-UK-0118", "event_date": "1967-07-24", "year": 1967, "magnitude": 3.4, "depth_km": 20.3, "source": "Synthetic / simulated data", "historical_status": "NOT VERIFIED HISTORICAL RECORD", "purpose": "GIS demonstration only" }, "geometry": { "type": "Point", "coordinates": [ 79.109468812680902, 30.034322569717908 ] } },
{ "type": "Feature", "properties": { "earthquake_id": "SYN-UK-0119", "event_date": "2005-04-01", "year": 2005, "magnitude": 5.3, "depth_km": 19.6, "source": "Synthetic / simulated data", "historical_status": "NOT VERIFIED HISTORICAL RECORD", "purpose": "GIS demonstration only" }, "geometry": { "type": "Point", "coordinates": [ 79.151827168994572, 30.815866944596237 ] } },
{ "type": "Feature", "properties": { "earthquake_id": "SYN-UK-0120", "event_date": "1985-05-30", "year": 1985, "magnitude": 3.9, "depth_km": 16.4, "source": "Synthetic / simulated data", "historical_status": "NOT VERIFIED HISTORICAL RECORD", "purpose": "GIS demonstration only" }, "geometry": { "type": "Point", "coordinates": [ 79.041561661122159, 30.301557001873856 ] } },
{ "type": "Feature", "properties": { "earthquake_id": "SYN-UK-0121", "event_date": "1999-01-24", "year": 1999, "magnitude": 4.5, "depth_km": 21.5, "source": "Synthetic / simulated data", "historical_status": "NOT VERIFIED HISTORICAL RECORD", "purpose": "GIS demonstration only" }, "geometry": { "type": "Point", "coordinates": [ 79.502293787598603, 29.511381995849373 ] } },
{ "type": "Feature", "properties": { "earthquake_id": "SYN-UK-0122", "event_date": "2001-01-03", "year": 2001, "magnitude": 4.0, "depth_km": 33.4, "source": "Synthetic / simulated data", "historical_status": "NOT VERIFIED HISTORICAL RECORD", "purpose": "GIS demonstration only" }, "geometry": { "type": "Point", "coordinates": [ 77.867557418271048, 30.290248748993122 ] } },
{ "type": "Feature", "properties": { "earthquake_id": "SYN-UK-0123", "event_date": "1968-03-06", "year": 1968, "magnitude": 3.4, "depth_km": 29.0, "source": "Synthetic / simulated data", "historical_status": "NOT VERIFIED HISTORICAL RECORD", "purpose": "GIS demonstration only" }, "geometry": { "type": "Point", "coordinates": [ 78.118490147994649, 30.75634149798865 ] } },
{ "type": "Feature", "properties": { "earthquake_id": "SYN-UK-0124", "event_date": "1946-10-29", "year": 1946, "magnitude": 4.6, "depth_km": 33.8, "source": "Synthetic / simulated data", "historical_status": "NOT VERIFIED HISTORICAL RECORD", "purpose": "GIS demonstration only" }, "geometry": { "type": "Point", "coordinates": [ 78.162393212526183, 30.400988994544107 ] } },
{ "type": "Feature", "properties": { "earthquake_id": "SYN-UK-0125", "event_date": "1995-07-25", "year": 1995, "magnitude": 3.7, "depth_km": 33.7, "source": "Synthetic / simulated data", "historical_status": "NOT VERIFIED HISTORICAL RECORD", "purpose": "GIS demonstration only" }, "geometry": { "type": "Point", "coordinates": [ 80.772141850062155, 30.212699152827764 ] } },
{ "type": "Feature", "properties": { "earthquake_id": "SYN-UK-0126", "event_date": "1990-03-12", "year": 1990, "magnitude": 6.5, "depth_km": 10.9, "source": "Synthetic / simulated data", "historical_status": "NOT VERIFIED HISTORICAL RECORD", "purpose": "GIS demonstration only" }, "geometry": { "type": "Point", "coordinates": [ 78.946719415552977, 30.433663158669297 ] } },
{ "type": "Feature", "properties": { "earthquake_id": "SYN-UK-0127", "event_date": "1930-03-29", "year": 1930, "magnitude": 4.9, "depth_km": 38.3, "source": "Synthetic / simulated data", "historical_status": "NOT VERIFIED HISTORICAL RECORD", "purpose": "GIS demonstration only" }, "geometry": { "type": "Point", "coordinates": [ 79.403182417879975, 29.177448068905996 ] } },
{ "type": "Feature", "properties": { "earthquake_id": "SYN-UK-0128", "event_date": "1946-06-04", "year": 1946, "magnitude": 3.1, "depth_km": 20.9, "source": "Synthetic / simulated data", "historical_status": "NOT VERIFIED HISTORICAL RECORD", "purpose": "GIS demonstration only" }, "geometry": { "type": "Point", "coordinates": [ 78.604125367132227, 30.318527499885789 ] } },
{ "type": "Feature", "properties": { "earthquake_id": "SYN-UK-0129", "event_date": "1976-04-08", "year": 1976, "magnitude": 3.6, "depth_km": 21.9, "source": "Synthetic / simulated data", "historical_status": "NOT VERIFIED HISTORICAL RECORD", "purpose": "GIS demonstration only" }, "geometry": { "type": "Point", "coordinates": [ 78.088980093933984, 30.76337937945539 ] } },
{ "type": "Feature", "properties": { "earthquake_id": "SYN-UK-0130", "event_date": "1965-01-19", "year": 1965, "magnitude": 3.9, "depth_km": 8.5, "source": "Synthetic / simulated data", "historical_status": "NOT VERIFIED HISTORICAL RECORD", "purpose": "GIS demonstration only" }, "geometry": { "type": "Point", "coordinates": [ 79.36973425382881, 29.460487091534834 ] } },
{ "type": "Feature", "properties": { "earthquake_id": "SYN-UK-0131", "event_date": "2023-06-14", "year": 2023, "magnitude": 3.2, "depth_km": 21.3, "source": "Synthetic / simulated data", "historical_status": "NOT VERIFIED HISTORICAL RECORD", "purpose": "GIS demonstration only" }, "geometry": { "type": "Point", "coordinates": [ 77.936438953759804, 29.796799558776829 ] } },
{ "type": "Feature", "properties": { "earthquake_id": "SYN-UK-0132", "event_date": "1926-04-14", "year": 1926, "magnitude": 3.2, "depth_km": 19.7, "source": "Synthetic / simulated data", "historical_status": "NOT VERIFIED HISTORICAL RECORD", "purpose": "GIS demonstration only" }, "geometry": { "type": "Point", "coordinates": [ 79.418225186276302, 29.732327026847003 ] } },
{ "type": "Feature", "properties": { "earthquake_id": "SYN-UK-0133", "event_date": "1930-06-03", "year": 1930, "magnitude": 4.8, "depth_km": 32.6, "source": "Synthetic / simulated data", "historical_status": "NOT VERIFIED HISTORICAL RECORD", "purpose": "GIS demonstration only" }, "geometry": { "type": "Point", "coordinates": [ 79.177092597837856, 30.256011314960116 ] } },
{ "type": "Feature", "properties": { "earthquake_id": "SYN-UK-0134", "event_date": "1975-07-11", "year": 1975, "magnitude": 6.6, "depth_km": 25.6, "source": "Synthetic / simulated data", "historical_status": "NOT VERIFIED HISTORICAL RECORD", "purpose": "GIS demonstration only" }, "geometry": { "type": "Point", "coordinates": [ 77.832547561752207, 29.860486367324363 ] } },
{ "type": "Feature", "properties": { "earthquake_id": "SYN-UK-0135", "event_date": "1977-02-10", "year": 1977, "magnitude": 3.1, "depth_km": 16.2, "source": "Synthetic / simulated data", "historical_status": "NOT VERIFIED HISTORICAL RECORD", "purpose": "GIS demonstration only" }, "geometry": { "type": "Point", "coordinates": [ 78.138580544867111, 31.038496481455734 ] } },
{ "type": "Feature", "properties": { "earthquake_id": "SYN-UK-0136", "event_date": "1969-02-28", "year": 1969, "magnitude": 3.5, "depth_km": 39.4, "source": "Synthetic / simulated data", "historical_status": "NOT VERIFIED HISTORICAL RECORD", "purpose": "GIS demonstration only" }, "geometry": { "type": "Point", "coordinates": [ 79.117279801534963, 30.280437236826042 ] } },
{ "type": "Feature", "properties": { "earthquake_id": "SYN-UK-0137", "event_date": "1941-02-13", "year": 1941, "magnitude": 4.5, "depth_km": 34.8, "source": "Synthetic / simulated data", "historical_status": "NOT VERIFIED HISTORICAL RECORD", "purpose": "GIS demonstration only" }, "geometry": { "type": "Point", "coordinates": [ 79.199685723969338, 30.623778179649626 ] } },
{ "type": "Feature", "properties": { "earthquake_id": "SYN-UK-0138", "event_date": "2001-04-26", "year": 2001, "magnitude": 3.0, "depth_km": 33.7, "source": "Synthetic / simulated data", "historical_status": "NOT VERIFIED HISTORICAL RECORD", "purpose": "GIS demonstration only" }, "geometry": { "type": "Point", "coordinates": [ 77.822074396924705, 30.968971870287255 ] } },
{ "type": "Feature", "properties": { "earthquake_id": "SYN-UK-0139", "event_date": "1952-02-11", "year": 1952, "magnitude": 3.1, "depth_km": 37.2, "source": "Synthetic / simulated data", "historical_status": "NOT VERIFIED HISTORICAL RECORD", "purpose": "GIS demonstration only" }, "geometry": { "type": "Point", "coordinates": [ 79.503692975642693, 29.346402905450535 ] } },
{ "type": "Feature", "properties": { "earthquake_id": "SYN-UK-0140", "event_date": "1976-05-26", "year": 1976, "magnitude": 4.4, "depth_km": 31.6, "source": "Synthetic / simulated data", "historical_status": "NOT VERIFIED HISTORICAL RECORD", "purpose": "GIS demonstration only" }, "geometry": { "type": "Point", "coordinates": [ 78.133307225032851, 31.044260599410372 ] } },
{ "type": "Feature", "properties": { "earthquake_id": "SYN-UK-0141", "event_date": "2020-09-22", "year": 2020, "magnitude": 4.8, "depth_km": 41.7, "source": "Synthetic / simulated data", "historical_status": "NOT VERIFIED HISTORICAL RECORD", "purpose": "GIS demonstration only" }, "geometry": { "type": "Point", "coordinates": [ 78.903769560078388, 29.921816051754593 ] } },
{ "type": "Feature", "properties": { "earthquake_id": "SYN-UK-0142", "event_date": "1993-08-03", "year": 1993, "magnitude": 4.5, "depth_km": 13.0, "source": "Synthetic / simulated data", "historical_status": "NOT VERIFIED HISTORICAL RECORD", "purpose": "GIS demonstration only" }, "geometry": { "type": "Point", "coordinates": [ 79.6427959251602, 29.173051559535438 ] } },
{ "type": "Feature", "properties": { "earthquake_id": "SYN-UK-0143", "event_date": "1947-04-10", "year": 1947, "magnitude": 3.4, "depth_km": 42.8, "source": "Synthetic / simulated data", "historical_status": "NOT VERIFIED HISTORICAL RECORD", "purpose": "GIS demonstration only" }, "geometry": { "type": "Point", "coordinates": [ 79.949689974324798, 30.099465232928132 ] } },
{ "type": "Feature", "properties": { "earthquake_id": "SYN-UK-0144", "event_date": "1979-04-09", "year": 1979, "magnitude": 4.2, "depth_km": 31.9, "source": "Synthetic / simulated data", "historical_status": "NOT VERIFIED HISTORICAL RECORD", "purpose": "GIS demonstration only" }, "geometry": { "type": "Point", "coordinates": [ 79.882776032396208, 29.321035187192397 ] } },
{ "type": "Feature", "properties": { "earthquake_id": "SYN-UK-0145", "event_date": "1969-05-11", "year": 1969, "magnitude": 3.6, "depth_km": 17.3, "source": "Synthetic / simulated data", "historical_status": "NOT VERIFIED HISTORICAL RECORD", "purpose": "GIS demonstration only" }, "geometry": { "type": "Point", "coordinates": [ 77.88104988005621, 29.703192635560651 ] } },
{ "type": "Feature", "properties": { "earthquake_id": "SYN-UK-0146", "event_date": "1973-12-20", "year": 1973, "magnitude": 4.5, "depth_km": 42.9, "source": "Synthetic / simulated data", "historical_status": "NOT VERIFIED HISTORICAL RECORD", "purpose": "GIS demonstration only" }, "geometry": { "type": "Point", "coordinates": [ 78.980074360345967, 30.180046289727422 ] } },
{ "type": "Feature", "properties": { "earthquake_id": "SYN-UK-0147", "event_date": "2013-01-02", "year": 2013, "magnitude": 3.4, "depth_km": 8.1, "source": "Synthetic / simulated data", "historical_status": "NOT VERIFIED HISTORICAL RECORD", "purpose": "GIS demonstration only" }, "geometry": { "type": "Point", "coordinates": [ 78.218019004979226, 30.093399286141114 ] } },
{ "type": "Feature", "properties": { "earthquake_id": "SYN-UK-0148", "event_date": "1988-10-05", "year": 1988, "magnitude": 3.8, "depth_km": 15.7, "source": "Synthetic / simulated data", "historical_status": "NOT VERIFIED HISTORICAL RECORD", "purpose": "GIS demonstration only" }, "geometry": { "type": "Point", "coordinates": [ 80.6403169513504, 30.369392611643129 ] } },
{ "type": "Feature", "properties": { "earthquake_id": "SYN-UK-0149", "event_date": "1985-09-10", "year": 1985, "magnitude": 3.6, "depth_km": 7.4, "source": "Synthetic / simulated data", "historical_status": "NOT VERIFIED HISTORICAL RECORD", "purpose": "GIS demonstration only" }, "geometry": { "type": "Point", "coordinates": [ 78.46918641766969, 31.078041463388391 ] } },
{ "type": "Feature", "properties": { "earthquake_id": "SYN-UK-0150", "event_date": "1994-07-21", "year": 1994, "magnitude": 3.3, "depth_km": 36.5, "source": "Synthetic / simulated data", "historical_status": "NOT VERIFIED HISTORICAL RECORD", "purpose": "GIS demonstration only" }, "geometry": { "type": "Point", "coordinates": [ 79.084590120130386, 30.564527477279448 ] } },
{ "type": "Feature", "properties": { "earthquake_id": "SYN-UK-0151", "event_date": "1971-07-25", "year": 1971, "magnitude": 3.0, "depth_km": 23.0, "source": "Synthetic / simulated data", "historical_status": "NOT VERIFIED HISTORICAL RECORD", "purpose": "GIS demonstration only" }, "geometry": { "type": "Point", "coordinates": [ 78.793591183789616, 30.798681197059807 ] } },
{ "type": "Feature", "properties": { "earthquake_id": "SYN-UK-0152", "event_date": "2003-11-02", "year": 2003, "magnitude": 3.3, "depth_km": 18.6, "source": "Synthetic / simulated data", "historical_status": "NOT VERIFIED HISTORICAL RECORD", "purpose": "GIS demonstration only" }, "geometry": { "type": "Point", "coordinates": [ 78.367327331569015, 30.805460566977139 ] } },
{ "type": "Feature", "properties": { "earthquake_id": "SYN-UK-0153", "event_date": "1936-09-14", "year": 1936, "magnitude": 3.9, "depth_km": 6.7, "source": "Synthetic / simulated data", "historical_status": "NOT VERIFIED HISTORICAL RECORD", "purpose": "GIS demonstration only" }, "geometry": { "type": "Point", "coordinates": [ 78.291031595750752, 30.524154126801267 ] } },
{ "type": "Feature", "properties": { "earthquake_id": "SYN-UK-0154", "event_date": "1966-12-21", "year": 1966, "magnitude": 4.4, "depth_km": 7.8, "source": "Synthetic / simulated data", "historical_status": "NOT VERIFIED HISTORICAL RECORD", "purpose": "GIS demonstration only" }, "geometry": { "type": "Point", "coordinates": [ 78.87099825421592, 30.147078670734778 ] } },
{ "type": "Feature", "properties": { "earthquake_id": "SYN-UK-0155", "event_date": "1978-11-08", "year": 1978, "magnitude": 4.0, "depth_km": 43.4, "source": "Synthetic / simulated data", "historical_status": "NOT VERIFIED HISTORICAL RECORD", "purpose": "GIS demonstration only" }, "geometry": { "type": "Point", "coordinates": [ 78.429142299461034, 30.703591362920957 ] } },
{ "type": "Feature", "properties": { "earthquake_id": "SYN-UK-0156", "event_date": "1947-11-24", "year": 1947, "magnitude": 4.5, "depth_km": 27.1, "source": "Synthetic / simulated data", "historical_status": "NOT VERIFIED HISTORICAL RECORD", "purpose": "GIS demonstration only" }, "geometry": { "type": "Point", "coordinates": [ 79.855987897735133, 29.671152751189091 ] } },
{ "type": "Feature", "properties": { "earthquake_id": "SYN-UK-0157", "event_date": "1932-11-11", "year": 1932, "magnitude": 3.6, "depth_km": 42.4, "source": "Synthetic / simulated data", "historical_status": "NOT VERIFIED HISTORICAL RECORD", "purpose": "GIS demonstration only" }, "geometry": { "type": "Point", "coordinates": [ 80.181991627949628, 30.706777995377188 ] } },
{ "type": "Feature", "properties": { "earthquake_id": "SYN-UK-0158", "event_date": "1956-03-02", "year": 1956, "magnitude": 3.3, "depth_km": 33.9, "source": "Synthetic / simulated data", "historical_status": "NOT VERIFIED HISTORICAL RECORD", "purpose": "GIS demonstration only" }, "geometry": { "type": "Point", "coordinates": [ 79.34650059992002, 29.709901448275591 ] } },
{ "type": "Feature", "properties": { "earthquake_id": "SYN-UK-0159", "event_date": "1935-08-20", "year": 1935, "magnitude": 5.8, "depth_km": 36.6, "source": "Synthetic / simulated data", "historical_status": "NOT VERIFIED HISTORICAL RECORD", "purpose": "GIS demonstration only" }, "geometry": { "type": "Point", "coordinates": [ 78.745317719909849, 29.854823922930635 ] } },
{ "type": "Feature", "properties": { "earthquake_id": "SYN-UK-0160", "event_date": "2003-11-25", "year": 2003, "magnitude": 3.3, "depth_km": 24.6, "source": "Synthetic / simulated data", "historical_status": "NOT VERIFIED HISTORICAL RECORD", "purpose": "GIS demonstration only" }, "geometry": { "type": "Point", "coordinates": [ 80.35840547851079, 29.645798187321898 ] } },
{ "type": "Feature", "properties": { "earthquake_id": "SYN-UK-0161", "event_date": "1945-11-05", "year": 1945, "magnitude": 3.9, "depth_km": 24.0, "source": "Synthetic / simulated data", "historical_status": "NOT VERIFIED HISTORICAL RECORD", "purpose": "GIS demonstration only" }, "geometry": { "type": "Point", "coordinates": [ 79.28222610426522, 29.499889339252295 ] } },
{ "type": "Feature", "properties": { "earthquake_id": "SYN-UK-0162", "event_date": "1999-06-18", "year": 1999, "magnitude": 4.5, "depth_km": 23.2, "source": "Synthetic / simulated data", "historical_status": "NOT VERIFIED HISTORICAL RECORD", "purpose": "GIS demonstration only" }, "geometry": { "type": "Point", "coordinates": [ 78.204277015938331, 31.041943244684727 ] } },
{ "type": "Feature", "properties": { "earthquake_id": "SYN-UK-0163", "event_date": "1930-10-09", "year": 1930, "magnitude": 4.4, "depth_km": 18.3, "source": "Synthetic / simulated data", "historical_status": "NOT VERIFIED HISTORICAL RECORD", "purpose": "GIS demonstration only" }, "geometry": { "type": "Point", "coordinates": [ 80.025587462466987, 29.329124529844862 ] } },
{ "type": "Feature", "properties": { "earthquake_id": "SYN-UK-0164", "event_date": "1946-10-04", "year": 1946, "magnitude": 3.9, "depth_km": 5.0, "source": "Synthetic / simulated data", "historical_status": "NOT VERIFIED HISTORICAL RECORD", "purpose": "GIS demonstration only" }, "geometry": { "type": "Point", "coordinates": [ 79.594250743646811, 29.965070222753319 ] } },
{ "type": "Feature", "properties": { "earthquake_id": "SYN-UK-0165", "event_date": "1929-03-12", "year": 1929, "magnitude": 4.0, "depth_km": 5.1, "source": "Synthetic / simulated data", "historical_status": "NOT VERIFIED HISTORICAL RECORD", "purpose": "GIS demonstration only" }, "geometry": { "type": "Point", "coordinates": [ 78.023079654601702, 29.61227788984937 ] } },
{ "type": "Feature", "properties": { "earthquake_id": "SYN-UK-0166", "event_date": "1961-06-07", "year": 1961, "magnitude": 3.3, "depth_km": 36.9, "source": "Synthetic / simulated data", "historical_status": "NOT VERIFIED HISTORICAL RECORD", "purpose": "GIS demonstration only" }, "geometry": { "type": "Point", "coordinates": [ 79.531934763406241, 29.319463913569926 ] } },
{ "type": "Feature", "properties": { "earthquake_id": "SYN-UK-0167", "event_date": "2010-01-02", "year": 2010, "magnitude": 3.2, "depth_km": 10.1, "source": "Synthetic / simulated data", "historical_status": "NOT VERIFIED HISTORICAL RECORD", "purpose": "GIS demonstration only" }, "geometry": { "type": "Point", "coordinates": [ 80.559152199597094, 29.98283776083499 ] } },
{ "type": "Feature", "properties": { "earthquake_id": "SYN-UK-0168", "event_date": "1955-03-08", "year": 1955, "magnitude": 5.8, "depth_km": 34.5, "source": "Synthetic / simulated data", "historical_status": "NOT VERIFIED HISTORICAL RECORD", "purpose": "GIS demonstration only" }, "geometry": { "type": "Point", "coordinates": [ 78.643757898448072, 30.344560214029183 ] } },
{ "type": "Feature", "properties": { "earthquake_id": "SYN-UK-0169", "event_date": "2021-01-16", "year": 2021, "magnitude": 3.7, "depth_km": 36.3, "source": "Synthetic / simulated data", "historical_status": "NOT VERIFIED HISTORICAL RECORD", "purpose": "GIS demonstration only" }, "geometry": { "type": "Point", "coordinates": [ 80.762087966902172, 30.22553997602666 ] } },
{ "type": "Feature", "properties": { "earthquake_id": "SYN-UK-0170", "event_date": "1945-03-24", "year": 1945, "magnitude": 3.8, "depth_km": 12.8, "source": "Synthetic / simulated data", "historical_status": "NOT VERIFIED HISTORICAL RECORD", "purpose": "GIS demonstration only" }, "geometry": { "type": "Point", "coordinates": [ 80.306631131134012, 30.479249191015217 ] } },
{ "type": "Feature", "properties": { "earthquake_id": "SYN-UK-0171", "event_date": "1931-08-02", "year": 1931, "magnitude": 3.1, "depth_km": 27.8, "source": "Synthetic / simulated data", "historical_status": "NOT VERIFIED HISTORICAL RECORD", "purpose": "GIS demonstration only" }, "geometry": { "type": "Point", "coordinates": [ 78.763330154547646, 29.735812370616699 ] } },
{ "type": "Feature", "properties": { "earthquake_id": "SYN-UK-0172", "event_date": "1957-06-24", "year": 1957, "magnitude": 3.2, "depth_km": 31.6, "source": "Synthetic / simulated data", "historical_status": "NOT VERIFIED HISTORICAL RECORD", "purpose": "GIS demonstration only" }, "geometry": { "type": "Point", "coordinates": [ 79.846241141933561, 29.802150165942379 ] } },
{ "type": "Feature", "properties": { "earthquake_id": "SYN-UK-0173", "event_date": "1987-04-26", "year": 1987, "magnitude": 3.5, "depth_km": 31.7, "source": "Synthetic / simulated data", "historical_status": "NOT VERIFIED HISTORICAL RECORD", "purpose": "GIS demonstration only" }, "geometry": { "type": "Point", "coordinates": [ 80.151888277684705, 29.913292393193242 ] } },
{ "type": "Feature", "properties": { "earthquake_id": "SYN-UK-0174", "event_date": "2002-01-05", "year": 2002, "magnitude": 3.3, "depth_km": 13.8, "source": "Synthetic / simulated data", "historical_status": "NOT VERIFIED HISTORICAL RECORD", "purpose": "GIS demonstration only" }, "geometry": { "type": "Point", "coordinates": [ 79.354460204324283, 29.104772209446068 ] } },
{ "type": "Feature", "properties": { "earthquake_id": "SYN-UK-0175", "event_date": "1987-06-20", "year": 1987, "magnitude": 3.9, "depth_km": 30.0, "source": "Synthetic / simulated data", "historical_status": "NOT VERIFIED HISTORICAL RECORD", "purpose": "GIS demonstration only" }, "geometry": { "type": "Point", "coordinates": [ 78.43257991994993, 30.015631822412047 ] } },
{ "type": "Feature", "properties": { "earthquake_id": "SYN-UK-0176", "event_date": "1992-04-19", "year": 1992, "magnitude": 5.2, "depth_km": 9.4, "source": "Synthetic / simulated data", "historical_status": "NOT VERIFIED HISTORICAL RECORD", "purpose": "GIS demonstration only" }, "geometry": { "type": "Point", "coordinates": [ 79.602570884368944, 29.345840852926404 ] } },
{ "type": "Feature", "properties": { "earthquake_id": "SYN-UK-0177", "event_date": "1937-11-03", "year": 1937, "magnitude": 3.5, "depth_km": 8.2, "source": "Synthetic / simulated data", "historical_status": "NOT VERIFIED HISTORICAL RECORD", "purpose": "GIS demonstration only" }, "geometry": { "type": "Point", "coordinates": [ 80.331445157356484, 30.279598965081419 ] } },
{ "type": "Feature", "properties": { "earthquake_id": "SYN-UK-0178", "event_date": "2002-10-21", "year": 2002, "magnitude": 4.1, "depth_km": 38.7, "source": "Synthetic / simulated data", "historical_status": "NOT VERIFIED HISTORICAL RECORD", "purpose": "GIS demonstration only" }, "geometry": { "type": "Point", "coordinates": [ 78.847447591620821, 31.109112456843331 ] } },
{ "type": "Feature", "properties": { "earthquake_id": "SYN-UK-0179", "event_date": "2016-12-31", "year": 2016, "magnitude": 4.8, "depth_km": 42.9, "source": "Synthetic / simulated data", "historical_status": "NOT VERIFIED HISTORICAL RECORD", "purpose": "GIS demonstration only" }, "geometry": { "type": "Point", "coordinates": [ 79.583297448361932, 29.173565271236264 ] } },
{ "type": "Feature", "properties": { "earthquake_id": "SYN-UK-0180", "event_date": "2011-05-07", "year": 2011, "magnitude": 5.6, "depth_km": 40.5, "source": "Synthetic / simulated data", "historical_status": "NOT VERIFIED HISTORICAL RECORD", "purpose": "GIS demonstration only" }, "geometry": { "type": "Point", "coordinates": [ 79.324970095594466, 29.580040312606393 ] } },
{ "type": "Feature", "properties": { "earthquake_id": "SYN-UK-0181", "event_date": "1984-02-15", "year": 1984, "magnitude": 4.3, "depth_km": 29.9, "source": "Synthetic / simulated data", "historical_status": "NOT VERIFIED HISTORICAL RECORD", "purpose": "GIS demonstration only" }, "geometry": { "type": "Point", "coordinates": [ 78.19753509436741, 29.80239449638864 ] } },
{ "type": "Feature", "properties": { "earthquake_id": "SYN-UK-0182", "event_date": "2016-11-11", "year": 2016, "magnitude": 3.2, "depth_km": 26.1, "source": "Synthetic / simulated data", "historical_status": "NOT VERIFIED HISTORICAL RECORD", "purpose": "GIS demonstration only" }, "geometry": { "type": "Point", "coordinates": [ 80.079016160118471, 30.456541341948704 ] } },
{ "type": "Feature", "properties": { "earthquake_id": "SYN-UK-0183", "event_date": "1998-03-04", "year": 1998, "magnitude": 3.1, "depth_km": 41.1, "source": "Synthetic / simulated data", "historical_status": "NOT VERIFIED HISTORICAL RECORD", "purpose": "GIS demonstration only" }, "geometry": { "type": "Point", "coordinates": [ 78.138522001502039, 31.056542398870629 ] } },
{ "type": "Feature", "properties": { "earthquake_id": "SYN-UK-0184", "event_date": "1989-10-05", "year": 1989, "magnitude": 3.8, "depth_km": 39.6, "source": "Synthetic / simulated data", "historical_status": "NOT VERIFIED HISTORICAL RECORD", "purpose": "GIS demonstration only" }, "geometry": { "type": "Point", "coordinates": [ 79.017854340929347, 30.073876147977433 ] } },
{ "type": "Feature", "properties": { "earthquake_id": "SYN-UK-0185", "event_date": "1955-07-30", "year": 1955, "magnitude": 4.9, "depth_km": 34.7, "source": "Synthetic / simulated data", "historical_status": "NOT VERIFIED HISTORICAL RECORD", "purpose": "GIS demonstration only" }, "geometry": { "type": "Point", "coordinates": [ 79.416748014810267, 28.954689768323647 ] } },
{ "type": "Feature", "properties": { "earthquake_id": "SYN-UK-0186", "event_date": "2007-05-07", "year": 2007, "magnitude": 5.7, "depth_km": 17.6, "source": "Synthetic / simulated data", "historical_status": "NOT VERIFIED HISTORICAL RECORD", "purpose": "GIS demonstration only" }, "geometry": { "type": "Point", "coordinates": [ 79.75402096854549, 30.188563692438009 ] } },
{ "type": "Feature", "properties": { "earthquake_id": "SYN-UK-0187", "event_date": "2006-06-21", "year": 2006, "magnitude": 5.1, "depth_km": 13.1, "source": "Synthetic / simulated data", "historical_status": "NOT VERIFIED HISTORICAL RECORD", "purpose": "GIS demonstration only" }, "geometry": { "type": "Point", "coordinates": [ 79.370937384328158, 30.654027703329593 ] } },
{ "type": "Feature", "properties": { "earthquake_id": "SYN-UK-0188", "event_date": "2001-03-25", "year": 2001, "magnitude": 3.5, "depth_km": 17.9, "source": "Synthetic / simulated data", "historical_status": "NOT VERIFIED HISTORICAL RECORD", "purpose": "GIS demonstration only" }, "geometry": { "type": "Point", "coordinates": [ 78.286893407100621, 30.820806438506395 ] } },
{ "type": "Feature", "properties": { "earthquake_id": "SYN-UK-0189", "event_date": "1934-03-22", "year": 1934, "magnitude": 3.1, "depth_km": 28.6, "source": "Synthetic / simulated data", "historical_status": "NOT VERIFIED HISTORICAL RECORD", "purpose": "GIS demonstration only" }, "geometry": { "type": "Point", "coordinates": [ 79.395230938342493, 29.658522514711532 ] } },
{ "type": "Feature", "properties": { "earthquake_id": "SYN-UK-0190", "event_date": "1938-11-28", "year": 1938, "magnitude": 3.8, "depth_km": 38.4, "source": "Synthetic / simulated data", "historical_status": "NOT VERIFIED HISTORICAL RECORD", "purpose": "GIS demonstration only" }, "geometry": { "type": "Point", "coordinates": [ 78.506919055558072, 30.401009362309601 ] } },
{ "type": "Feature", "properties": { "earthquake_id": "SYN-UK-0191", "event_date": "2020-11-27", "year": 2020, "magnitude": 3.2, "depth_km": 29.4, "source": "Synthetic / simulated data", "historical_status": "NOT VERIFIED HISTORICAL RECORD", "purpose": "GIS demonstration only" }, "geometry": { "type": "Point", "coordinates": [ 80.330853288313477, 29.94270262109977 ] } },
{ "type": "Feature", "properties": { "earthquake_id": "SYN-UK-0192", "event_date": "1980-05-29", "year": 1980, "magnitude": 6.4, "depth_km": 19.1, "source": "Synthetic / simulated data", "historical_status": "NOT VERIFIED HISTORICAL RECORD", "purpose": "GIS demonstration only" }, "geometry": { "type": "Point", "coordinates": [ 80.322442701664656, 30.51570566798943 ] } },
{ "type": "Feature", "properties": { "earthquake_id": "SYN-UK-0193", "event_date": "1973-03-02", "year": 1973, "magnitude": 3.2, "depth_km": 35.8, "source": "Synthetic / simulated data", "historical_status": "NOT VERIFIED HISTORICAL RECORD", "purpose": "GIS demonstration only" }, "geometry": { "type": "Point", "coordinates": [ 79.059758291865393, 29.198434327517628 ] } },
{ "type": "Feature", "properties": { "earthquake_id": "SYN-UK-0194", "event_date": "1943-12-05", "year": 1943, "magnitude": 3.5, "depth_km": 36.5, "source": "Synthetic / simulated data", "historical_status": "NOT VERIFIED HISTORICAL RECORD", "purpose": "GIS demonstration only" }, "geometry": { "type": "Point", "coordinates": [ 79.694381233038655, 29.331154571180534 ] } },
{ "type": "Feature", "properties": { "earthquake_id": "SYN-UK-0195", "event_date": "1974-09-29", "year": 1974, "magnitude": 3.2, "depth_km": 9.4, "source": "Synthetic / simulated data", "historical_status": "NOT VERIFIED HISTORICAL RECORD", "purpose": "GIS demonstration only" }, "geometry": { "type": "Point", "coordinates": [ 79.471533751468684, 29.892270979598376 ] } },
{ "type": "Feature", "properties": { "earthquake_id": "SYN-UK-0196", "event_date": "1950-10-12", "year": 1950, "magnitude": 3.7, "depth_km": 11.3, "source": "Synthetic / simulated data", "historical_status": "NOT VERIFIED HISTORICAL RECORD", "purpose": "GIS demonstration only" }, "geometry": { "type": "Point", "coordinates": [ 78.970762729321279, 30.896558366644637 ] } },
{ "type": "Feature", "properties": { "earthquake_id": "SYN-UK-0197", "event_date": "1955-06-17", "year": 1955, "magnitude": 4.1, "depth_km": 27.5, "source": "Synthetic / simulated data", "historical_status": "NOT VERIFIED HISTORICAL RECORD", "purpose": "GIS demonstration only" }, "geometry": { "type": "Point", "coordinates": [ 78.725376173558928, 30.749990495330465 ] } },
{ "type": "Feature", "properties": { "earthquake_id": "SYN-UK-0198", "event_date": "1982-11-26", "year": 1982, "magnitude": 3.9, "depth_km": 30.7, "source": "Synthetic / simulated data", "historical_status": "NOT VERIFIED HISTORICAL RECORD", "purpose": "GIS demonstration only" }, "geometry": { "type": "Point", "coordinates": [ 79.107781486743477, 30.789440187414915 ] } },
{ "type": "Feature", "properties": { "earthquake_id": "SYN-UK-0199", "event_date": "2016-09-05", "year": 2016, "magnitude": 4.1, "depth_km": 10.3, "source": "Synthetic / simulated data", "historical_status": "NOT VERIFIED HISTORICAL RECORD", "purpose": "GIS demonstration only" }, "geometry": { "type": "Point", "coordinates": [ 80.216663707339151, 30.069042705711194 ] } },
{ "type": "Feature", "properties": { "earthquake_id": "SYN-UK-0200", "event_date": "1955-09-27", "year": 1955, "magnitude": 3.1, "depth_km": 22.0, "source": "Synthetic / simulated data", "historical_status": "NOT VERIFIED HISTORICAL RECORD", "purpose": "GIS demonstration only" }, "geometry": { "type": "Point", "coordinates": [ 80.006905122241065, 30.569797138634559 ] } },
{ "type": "Feature", "properties": { "earthquake_id": "SYN-UK-0201", "event_date": "1966-03-24", "year": 1966, "magnitude": 3.4, "depth_km": 12.2, "source": "Synthetic / simulated data", "historical_status": "NOT VERIFIED HISTORICAL RECORD", "purpose": "GIS demonstration only" }, "geometry": { "type": "Point", "coordinates": [ 79.985721120413558, 29.79514290116564 ] } },
{ "type": "Feature", "properties": { "earthquake_id": "SYN-UK-0202", "event_date": "2025-05-18", "year": 2025, "magnitude": 3.9, "depth_km": 5.4, "source": "Synthetic / simulated data", "historical_status": "NOT VERIFIED HISTORICAL RECORD", "purpose": "GIS demonstration only" }, "geometry": { "type": "Point", "coordinates": [ 79.013444214369017, 29.318872464482226 ] } },
{ "type": "Feature", "properties": { "earthquake_id": "SYN-UK-0203", "event_date": "2015-07-20", "year": 2015, "magnitude": 4.0, "depth_km": 33.9, "source": "Synthetic / simulated data", "historical_status": "NOT VERIFIED HISTORICAL RECORD", "purpose": "GIS demonstration only" }, "geometry": { "type": "Point", "coordinates": [ 79.266253345376143, 29.86472459299323 ] } },
{ "type": "Feature", "properties": { "earthquake_id": "SYN-UK-0204", "event_date": "1980-04-18", "year": 1980, "magnitude": 4.4, "depth_km": 16.8, "source": "Synthetic / simulated data", "historical_status": "NOT VERIFIED HISTORICAL RECORD", "purpose": "GIS demonstration only" }, "geometry": { "type": "Point", "coordinates": [ 80.156889011111573, 30.240039626149962 ] } },
{ "type": "Feature", "properties": { "earthquake_id": "SYN-UK-0205", "event_date": "2000-02-08", "year": 2000, "magnitude": 4.7, "depth_km": 12.1, "source": "Synthetic / simulated data", "historical_status": "NOT VERIFIED HISTORICAL RECORD", "purpose": "GIS demonstration only" }, "geometry": { "type": "Point", "coordinates": [ 80.783182434082264, 30.287446410468096 ] } },
{ "type": "Feature", "properties": { "earthquake_id": "SYN-UK-0206", "event_date": "1971-11-15", "year": 1971, "magnitude": 3.0, "depth_km": 23.9, "source": "Synthetic / simulated data", "historical_status": "NOT VERIFIED HISTORICAL RECORD", "purpose": "GIS demonstration only" }, "geometry": { "type": "Point", "coordinates": [ 78.574383839775649, 29.724621114195337 ] } },
{ "type": "Feature", "properties": { "earthquake_id": "SYN-UK-0207", "event_date": "2008-10-06", "year": 2008, "magnitude": 4.5, "depth_km": 15.0, "source": "Synthetic / simulated data", "historical_status": "NOT VERIFIED HISTORICAL RECORD", "purpose": "GIS demonstration only" }, "geometry": { "type": "Point", "coordinates": [ 79.39066133685813, 29.231806997530434 ] } },
{ "type": "Feature", "properties": { "earthquake_id": "SYN-UK-0208", "event_date": "1983-06-04", "year": 1983, "magnitude": 3.2, "depth_km": 45.0, "source": "Synthetic / simulated data", "historical_status": "NOT VERIFIED HISTORICAL RECORD", "purpose": "GIS demonstration only" }, "geometry": { "type": "Point", "coordinates": [ 79.79646097694966, 29.210105330886879 ] } },
{ "type": "Feature", "properties": { "earthquake_id": "SYN-UK-0209", "event_date": "2011-06-25", "year": 2011, "magnitude": 3.8, "depth_km": 6.8, "source": "Synthetic / simulated data", "historical_status": "NOT VERIFIED HISTORICAL RECORD", "purpose": "GIS demonstration only" }, "geometry": { "type": "Point", "coordinates": [ 79.690294778233891, 30.15301385715523 ] } },
{ "type": "Feature", "properties": { "earthquake_id": "SYN-UK-0210", "event_date": "1990-09-03", "year": 1990, "magnitude": 3.4, "depth_km": 30.5, "source": "Synthetic / simulated data", "historical_status": "NOT VERIFIED HISTORICAL RECORD", "purpose": "GIS demonstration only" }, "geometry": { "type": "Point", "coordinates": [ 79.232864201510338, 29.274103662098039 ] } },
{ "type": "Feature", "properties": { "earthquake_id": "SYN-UK-0211", "event_date": "1955-07-11", "year": 1955, "magnitude": 3.2, "depth_km": 28.4, "source": "Synthetic / simulated data", "historical_status": "NOT VERIFIED HISTORICAL RECORD", "purpose": "GIS demonstration only" }, "geometry": { "type": "Point", "coordinates": [ 79.200605093328377, 31.112651541779002 ] } },
{ "type": "Feature", "properties": { "earthquake_id": "SYN-UK-0212", "event_date": "1998-08-12", "year": 1998, "magnitude": 4.0, "depth_km": 8.5, "source": "Synthetic / simulated data", "historical_status": "NOT VERIFIED HISTORICAL RECORD", "purpose": "GIS demonstration only" }, "geometry": { "type": "Point", "coordinates": [ 78.226674645550858, 30.525648717766156 ] } },
{ "type": "Feature", "properties": { "earthquake_id": "SYN-UK-0213", "event_date": "1968-10-17", "year": 1968, "magnitude": 4.4, "depth_km": 9.3, "source": "Synthetic / simulated data", "historical_status": "NOT VERIFIED HISTORICAL RECORD", "purpose": "GIS demonstration only" }, "geometry": { "type": "Point", "coordinates": [ 78.756102144026499, 31.043791520283364 ] } },
{ "type": "Feature", "properties": { "earthquake_id": "SYN-UK-0214", "event_date": "1939-08-18", "year": 1939, "magnitude": 4.9, "depth_km": 17.4, "source": "Synthetic / simulated data", "historical_status": "NOT VERIFIED HISTORICAL RECORD", "purpose": "GIS demonstration only" }, "geometry": { "type": "Point", "coordinates": [ 79.285928265008721, 31.09269774942026 ] } },
{ "type": "Feature", "properties": { "earthquake_id": "SYN-UK-0215", "event_date": "1978-09-27", "year": 1978, "magnitude": 3.1, "depth_km": 20.9, "source": "Synthetic / simulated data", "historical_status": "NOT VERIFIED HISTORICAL RECORD", "purpose": "GIS demonstration only" }, "geometry": { "type": "Point", "coordinates": [ 78.259988626368695, 29.932886736079425 ] } },
{ "type": "Feature", "properties": { "earthquake_id": "SYN-UK-0216", "event_date": "2018-07-28", "year": 2018, "magnitude": 3.4, "depth_km": 17.7, "source": "Synthetic / simulated data", "historical_status": "NOT VERIFIED HISTORICAL RECORD", "purpose": "GIS demonstration only" }, "geometry": { "type": "Point", "coordinates": [ 78.48076973396023, 30.082119569421579 ] } },
{ "type": "Feature", "properties": { "earthquake_id": "SYN-UK-0217", "event_date": "1975-10-18", "year": 1975, "magnitude": 4.0, "depth_km": 35.8, "source": "Synthetic / simulated data", "historical_status": "NOT VERIFIED HISTORICAL RECORD", "purpose": "GIS demonstration only" }, "geometry": { "type": "Point", "coordinates": [ 79.589047365485342, 29.586792061942852 ] } },
{ "type": "Feature", "properties": { "earthquake_id": "SYN-UK-0218", "event_date": "1985-01-10", "year": 1985, "magnitude": 4.9, "depth_km": 6.2, "source": "Synthetic / simulated data", "historical_status": "NOT VERIFIED HISTORICAL RECORD", "purpose": "GIS demonstration only" }, "geometry": { "type": "Point", "coordinates": [ 79.416750227496152, 30.155354622086556 ] } },
{ "type": "Feature", "properties": { "earthquake_id": "SYN-UK-0219", "event_date": "1974-06-27", "year": 1974, "magnitude": 3.9, "depth_km": 29.3, "source": "Synthetic / simulated data", "historical_status": "NOT VERIFIED HISTORICAL RECORD", "purpose": "GIS demonstration only" }, "geometry": { "type": "Point", "coordinates": [ 78.874111438563418, 31.046265819225425 ] } },
{ "type": "Feature", "properties": { "earthquake_id": "SYN-UK-0220", "event_date": "2001-10-07", "year": 2001, "magnitude": 4.0, "depth_km": 21.4, "source": "Synthetic / simulated data", "historical_status": "NOT VERIFIED HISTORICAL RECORD", "purpose": "GIS demonstration only" }, "geometry": { "type": "Point", "coordinates": [ 78.044723997725271, 29.852406268318759 ] } },
{ "type": "Feature", "properties": { "earthquake_id": "SYN-UK-0221", "event_date": "1939-03-28", "year": 1939, "magnitude": 4.7, "depth_km": 33.7, "source": "Synthetic / simulated data", "historical_status": "NOT VERIFIED HISTORICAL RECORD", "purpose": "GIS demonstration only" }, "geometry": { "type": "Point", "coordinates": [ 78.007601252579548, 30.09316761442512 ] } },
{ "type": "Feature", "properties": { "earthquake_id": "SYN-UK-0222", "event_date": "1979-07-11", "year": 1979, "magnitude": 3.7, "depth_km": 34.9, "source": "Synthetic / simulated data", "historical_status": "NOT VERIFIED HISTORICAL RECORD", "purpose": "GIS demonstration only" }, "geometry": { "type": "Point", "coordinates": [ 80.236789152423597, 29.616811106892122 ] } },
{ "type": "Feature", "properties": { "earthquake_id": "SYN-UK-0223", "event_date": "1929-02-07", "year": 1929, "magnitude": 4.8, "depth_km": 35.1, "source": "Synthetic / simulated data", "historical_status": "NOT VERIFIED HISTORICAL RECORD", "purpose": "GIS demonstration only" }, "geometry": { "type": "Point", "coordinates": [ 78.916990828100893, 29.329060797515393 ] } },
{ "type": "Feature", "properties": { "earthquake_id": "SYN-UK-0224", "event_date": "1963-11-28", "year": 1963, "magnitude": 3.0, "depth_km": 17.4, "source": "Synthetic / simulated data", "historical_status": "NOT VERIFIED HISTORICAL RECORD", "purpose": "GIS demonstration only" }, "geometry": { "type": "Point", "coordinates": [ 79.99512742712632, 30.636333110546556 ] } },
{ "type": "Feature", "properties": { "earthquake_id": "SYN-UK-0225", "event_date": "1966-11-05", "year": 1966, "magnitude": 4.3, "depth_km": 17.8, "source": "Synthetic / simulated data", "historical_status": "NOT VERIFIED HISTORICAL RECORD", "purpose": "GIS demonstration only" }, "geometry": { "type": "Point", "coordinates": [ 80.178203177199549, 30.514031477605926 ] } },
{ "type": "Feature", "properties": { "earthquake_id": "SYN-UK-0226", "event_date": "1987-12-16", "year": 1987, "magnitude": 3.5, "depth_km": 23.7, "source": "Synthetic / simulated data", "historical_status": "NOT VERIFIED HISTORICAL RECORD", "purpose": "GIS demonstration only" }, "geometry": { "type": "Point", "coordinates": [ 79.620057143957297, 29.79758666114855 ] } },
{ "type": "Feature", "properties": { "earthquake_id": "SYN-UK-0227", "event_date": "1970-05-10", "year": 1970, "magnitude": 3.0, "depth_km": 18.0, "source": "Synthetic / simulated data", "historical_status": "NOT VERIFIED HISTORICAL RECORD", "purpose": "GIS demonstration only" }, "geometry": { "type": "Point", "coordinates": [ 80.129074452926318, 29.048964288616791 ] } },
{ "type": "Feature", "properties": { "earthquake_id": "SYN-UK-0228", "event_date": "1978-09-19", "year": 1978, "magnitude": 3.7, "depth_km": 44.0, "source": "Synthetic / simulated data", "historical_status": "NOT VERIFIED HISTORICAL RECORD", "purpose": "GIS demonstration only" }, "geometry": { "type": "Point", "coordinates": [ 79.572781373604684, 29.694651472996298 ] } },
{ "type": "Feature", "properties": { "earthquake_id": "SYN-UK-0229", "event_date": "1964-05-10", "year": 1964, "magnitude": 4.8, "depth_km": 43.3, "source": "Synthetic / simulated data", "historical_status": "NOT VERIFIED HISTORICAL RECORD", "purpose": "GIS demonstration only" }, "geometry": { "type": "Point", "coordinates": [ 79.893304432016421, 29.705707820602957 ] } },
{ "type": "Feature", "properties": { "earthquake_id": "SYN-UK-0230", "event_date": "1945-03-13", "year": 1945, "magnitude": 3.4, "depth_km": 14.2, "source": "Synthetic / simulated data", "historical_status": "NOT VERIFIED HISTORICAL RECORD", "purpose": "GIS demonstration only" }, "geometry": { "type": "Point", "coordinates": [ 77.964454767781788, 31.01854141527653 ] } },
{ "type": "Feature", "properties": { "earthquake_id": "SYN-UK-0231", "event_date": "1998-08-25", "year": 1998, "magnitude": 5.8, "depth_km": 26.2, "source": "Synthetic / simulated data", "historical_status": "NOT VERIFIED HISTORICAL RECORD", "purpose": "GIS demonstration only" }, "geometry": { "type": "Point", "coordinates": [ 78.831529860970619, 30.271766123273981 ] } },
{ "type": "Feature", "properties": { "earthquake_id": "SYN-UK-0232", "event_date": "1962-12-09", "year": 1962, "magnitude": 5.9, "depth_km": 8.6, "source": "Synthetic / simulated data", "historical_status": "NOT VERIFIED HISTORICAL RECORD", "purpose": "GIS demonstration only" }, "geometry": { "type": "Point", "coordinates": [ 79.730758734200606, 30.130968357297974 ] } },
{ "type": "Feature", "properties": { "earthquake_id": "SYN-UK-0233", "event_date": "1975-04-25", "year": 1975, "magnitude": 3.4, "depth_km": 18.6, "source": "Synthetic / simulated data", "historical_status": "NOT VERIFIED HISTORICAL RECORD", "purpose": "GIS demonstration only" }, "geometry": { "type": "Point", "coordinates": [ 78.25298481151026, 30.212328969818941 ] } },
{ "type": "Feature", "properties": { "earthquake_id": "SYN-UK-0234", "event_date": "1993-10-29", "year": 1993, "magnitude": 6.5, "depth_km": 35.5, "source": "Synthetic / simulated data", "historical_status": "NOT VERIFIED HISTORICAL RECORD", "purpose": "GIS demonstration only" }, "geometry": { "type": "Point", "coordinates": [ 79.457003340469669, 30.493563414955556 ] } },
{ "type": "Feature", "properties": { "earthquake_id": "SYN-UK-0235", "event_date": "1951-07-09", "year": 1951, "magnitude": 3.9, "depth_km": 31.5, "source": "Synthetic / simulated data", "historical_status": "NOT VERIFIED HISTORICAL RECORD", "purpose": "GIS demonstration only" }, "geometry": { "type": "Point", "coordinates": [ 79.739460033588685, 28.961589005655835 ] } },
{ "type": "Feature", "properties": { "earthquake_id": "SYN-UK-0236", "event_date": "1960-05-20", "year": 1960, "magnitude": 3.9, "depth_km": 22.2, "source": "Synthetic / simulated data", "historical_status": "NOT VERIFIED HISTORICAL RECORD", "purpose": "GIS demonstration only" }, "geometry": { "type": "Point", "coordinates": [ 78.863059182056602, 30.77172609460418 ] } },
{ "type": "Feature", "properties": { "earthquake_id": "SYN-UK-0237", "event_date": "1965-07-08", "year": 1965, "magnitude": 4.9, "depth_km": 44.6, "source": "Synthetic / simulated data", "historical_status": "NOT VERIFIED HISTORICAL RECORD", "purpose": "GIS demonstration only" }, "geometry": { "type": "Point", "coordinates": [ 80.069711485035242, 29.118712562622139 ] } },
{ "type": "Feature", "properties": { "earthquake_id": "SYN-UK-0238", "event_date": "1981-08-20", "year": 1981, "magnitude": 4.2, "depth_km": 23.7, "source": "Synthetic / simulated data", "historical_status": "NOT VERIFIED HISTORICAL RECORD", "purpose": "GIS demonstration only" }, "geometry": { "type": "Point", "coordinates": [ 79.153281878196623, 30.02369977087556 ] } },
{ "type": "Feature", "properties": { "earthquake_id": "SYN-UK-0239", "event_date": "1937-08-24", "year": 1937, "magnitude": 3.2, "depth_km": 20.1, "source": "Synthetic / simulated data", "historical_status": "NOT VERIFIED HISTORICAL RECORD", "purpose": "GIS demonstration only" }, "geometry": { "type": "Point", "coordinates": [ 78.182934972679291, 30.77153873848107 ] } },
{ "type": "Feature", "properties": { "earthquake_id": "SYN-UK-0240", "event_date": "1986-12-14", "year": 1986, "magnitude": 4.5, "depth_km": 39.9, "source": "Synthetic / simulated data", "historical_status": "NOT VERIFIED HISTORICAL RECORD", "purpose": "GIS demonstration only" }, "geometry": { "type": "Point", "coordinates": [ 79.105591675529666, 29.840023927311282 ] } },
{ "type": "Feature", "properties": { "earthquake_id": "SYN-UK-0241", "event_date": "1938-01-10", "year": 1938, "magnitude": 4.3, "depth_km": 13.9, "source": "Synthetic / simulated data", "historical_status": "NOT VERIFIED HISTORICAL RECORD", "purpose": "GIS demonstration only" }, "geometry": { "type": "Point", "coordinates": [ 78.173349811295807, 30.703319071177241 ] } },
{ "type": "Feature", "properties": { "earthquake_id": "SYN-UK-0242", "event_date": "1954-12-18", "year": 1954, "magnitude": 4.2, "depth_km": 8.0, "source": "Synthetic / simulated data", "historical_status": "NOT VERIFIED HISTORICAL RECORD", "purpose": "GIS demonstration only" }, "geometry": { "type": "Point", "coordinates": [ 79.226329548447978, 30.327476202792155 ] } },
{ "type": "Feature", "properties": { "earthquake_id": "SYN-UK-0243", "event_date": "2018-04-15", "year": 2018, "magnitude": 3.3, "depth_km": 31.3, "source": "Synthetic / simulated data", "historical_status": "NOT VERIFIED HISTORICAL RECORD", "purpose": "GIS demonstration only" }, "geometry": { "type": "Point", "coordinates": [ 78.486792609631436, 29.994718169969733 ] } },
{ "type": "Feature", "properties": { "earthquake_id": "SYN-UK-0244", "event_date": "2025-06-20", "year": 2025, "magnitude": 4.4, "depth_km": 14.7, "source": "Synthetic / simulated data", "historical_status": "NOT VERIFIED HISTORICAL RECORD", "purpose": "GIS demonstration only" }, "geometry": { "type": "Point", "coordinates": [ 79.813850062213348, 30.126882651795022 ] } },
{ "type": "Feature", "properties": { "earthquake_id": "SYN-UK-0245", "event_date": "2015-06-26", "year": 2015, "magnitude": 3.4, "depth_km": 9.9, "source": "Synthetic / simulated data", "historical_status": "NOT VERIFIED HISTORICAL RECORD", "purpose": "GIS demonstration only" }, "geometry": { "type": "Point", "coordinates": [ 79.606957426408997, 29.983252477993563 ] } },
{ "type": "Feature", "properties": { "earthquake_id": "SYN-UK-0246", "event_date": "2017-02-25", "year": 2017, "magnitude": 4.4, "depth_km": 10.4, "source": "Synthetic / simulated data", "historical_status": "NOT VERIFIED HISTORICAL RECORD", "purpose": "GIS demonstration only" }, "geometry": { "type": "Point", "coordinates": [ 78.563708555976888, 29.787090440069292 ] } },
{ "type": "Feature", "properties": { "earthquake_id": "SYN-UK-0247", "event_date": "1961-02-21", "year": 1961, "magnitude": 3.4, "depth_km": 12.5, "source": "Synthetic / simulated data", "historical_status": "NOT VERIFIED HISTORICAL RECORD", "purpose": "GIS demonstration only" }, "geometry": { "type": "Point", "coordinates": [ 78.147582161680262, 30.393011140854327 ] } },
{ "type": "Feature", "properties": { "earthquake_id": "SYN-UK-0248", "event_date": "1936-01-22", "year": 1936, "magnitude": 5.3, "depth_km": 20.3, "source": "Synthetic / simulated data", "historical_status": "NOT VERIFIED HISTORICAL RECORD", "purpose": "GIS demonstration only" }, "geometry": { "type": "Point", "coordinates": [ 80.68528309699073, 30.19774246609914 ] } },
{ "type": "Feature", "properties": { "earthquake_id": "SYN-UK-0249", "event_date": "1961-10-28", "year": 1961, "magnitude": 3.0, "depth_km": 6.0, "source": "Synthetic / simulated data", "historical_status": "NOT VERIFIED HISTORICAL RECORD", "purpose": "GIS demonstration only" }, "geometry": { "type": "Point", "coordinates": [ 79.539679280628889, 29.433972796711199 ] } },
{ "type": "Feature", "properties": { "earthquake_id": "SYN-UK-0250", "event_date": "1999-05-15", "year": 1999, "magnitude": 4.8, "depth_km": 43.1, "source": "Synthetic / simulated data", "historical_status": "NOT VERIFIED HISTORICAL RECORD", "purpose": "GIS demonstration only" }, "geometry": { "type": "Point", "coordinates": [ 80.058485028103732, 28.96734728441206 ] } }
]
}
