{
"type": "FeatureCollection",
"name": "communitycenter2",
"crs": { "type": "name", "properties": { "name": "urn:ogc:def:crs:OGC:1.3:CRS84" } },
"features": [
{"type":"Feature","properties":{"full_id":"n4207539022","osm_id":"4207539022","osm_type":"node","amenity":"community_centre","opening_hours":null,"community_centre":null,"addr:postcode":null,"mapillary":null,"internet_access":null,"name:etymology:wikidata":null,"name:en":null,"name:hi":null,"phone":null,"email":null,"addr:street":null,"addr:housenumber":null,"name":"Civil Services Institute (CSI)"},"geometry":{"type":"Point","coordinates":[78.0870105,30.3985396]}},
{"type":"Feature","properties":{"full_id":"n4384016392","osm_id":"4384016392","osm_type":"node","amenity":"community_centre","opening_hours":null,"community_centre":null,"addr:postcode":null,"mapillary":null,"internet_access":null,"name:etymology:wikidata":null,"name:en":null,"name:hi":null,"phone":"91-2442626","email":"chabadrishikesh@gmail.com","addr:street":"Shivananda Nagar","addr:housenumber":"1","name":"Chabad House - בית חב\"ד"},"geometry":{"type":"Point","coordinates":[78.3269326,30.1287669]}},
{"type":"Feature","properties":{"full_id":"n4591296589","osm_id":"4591296589","osm_type":"node","amenity":"community_centre","opening_hours":null,"community_centre":null,"addr:postcode":null,"mapillary":null,"internet_access":null,"name:etymology:wikidata":null,"name:en":null,"name:hi":"Spiritual Peace Centre","phone":null,"email":null,"addr:street":null,"addr:housenumber":null,"name":"Spiritual Peace Centre"},"geometry":{"type":"Point","coordinates":[78.1425201,30.1222438]}},
{"type":"Feature","properties":{"full_id":"n4890157223","osm_id":"4890157223","osm_type":"node","amenity":"community_centre","opening_hours":null,"community_centre":null,"addr:postcode":null,"mapillary":null,"internet_access":null,"name:etymology:wikidata":null,"name:en":"Himalayan farm project","name:hi":null,"phone":null,"email":null,"addr:street":null,"addr:housenumber":null,"name":"Himalayan farm project"},"geometry":{"type":"Point","coordinates":[79.5090871,29.3132312]}},
{"type":"Feature","properties":{"full_id":"n5933577656","osm_id":"5933577656","osm_type":"node","amenity":"community_centre","opening_hours":null,"community_centre":null,"addr:postcode":null,"mapillary":null,"internet_access":null,"name:etymology:wikidata":"Q9455","name:en":null,"name:hi":null,"phone":null,"email":null,"addr:street":null,"addr:housenumber":null,"name":"Sardar Patel Hall"},"geometry":{"type":"Point","coordinates":[78.0548645,30.4692452]}},
{"type":"Feature","properties":{"full_id":"n5933584727","osm_id":"5933584727","osm_type":"node","amenity":"community_centre","opening_hours":null,"community_centre":null,"addr:postcode":null,"mapillary":null,"internet_access":null,"name:etymology:wikidata":null,"name:en":null,"name:hi":null,"phone":null,"email":null,"addr:street":null,"addr:housenumber":null,"name":"Sampoornanad Auditorium"},"geometry":{"type":"Point","coordinates":[78.0556584,30.469088]}},
{"type":"Feature","properties":{"full_id":"n6855183086","osm_id":"6855183086","osm_type":"node","amenity":"community_centre","opening_hours":null,"community_centre":null,"addr:postcode":null,"mapillary":null,"internet_access":null,"name:etymology:wikidata":null,"name:en":null,"name:hi":null,"phone":null,"email":null,"addr:street":null,"addr:housenumber":null,"name":"Chabad of Kasar Devi"},"geometry":{"type":"Point","coordinates":[79.666172,29.6519406]}},
{"type":"Feature","properties":{"full_id":"n7021512785","osm_id":"7021512785","osm_type":"node","amenity":"community_centre","opening_hours":null,"community_centre":null,"addr:postcode":null,"mapillary":null,"internet_access":"wlan","name:etymology:wikidata":null,"name:en":null,"name:hi":null,"phone":null,"email":null,"addr:street":null,"addr:housenumber":null,"name":"Alakh Yog"},"geometry":{"type":"Point","coordinates":[78.2721239,30.0736707]}},
{"type":"Feature","properties":{"full_id":"n11070849936","osm_id":"11070849936","osm_type":"node","amenity":"community_centre","opening_hours":null,"community_centre":null,"addr:postcode":null,"mapillary":null,"internet_access":null,"name:etymology:wikidata":null,"name:en":null,"name:hi":null,"phone":null,"email":null,"addr:street":null,"addr:housenumber":null,"name":null},"geometry":{"type":"Point","coordinates":[79.3806654,28.979644]}},
{"type":"Feature","properties":{"full_id":"n11361825103","osm_id":"11361825103","osm_type":"node","amenity":"community_centre","opening_hours":null,"community_centre":null,"addr:postcode":null,"mapillary":"1107901526455655","internet_access":null,"name:etymology:wikidata":null,"name:en":null,"name:hi":null,"phone":null,"email":null,"addr:street":null,"addr:housenumber":null,"name":"Rajeev Gandhi Panchayat Bhawan"},"geometry":{"type":"Point","coordinates":[79.4750992,29.2194358]}},
{"type":"Feature","properties":{"full_id":"n12119806301","osm_id":"12119806301","osm_type":"node","amenity":"community_centre","opening_hours":null,"community_centre":null,"addr:postcode":"248001","mapillary":null,"internet_access":null,"name:etymology:wikidata":null,"name:en":null,"name:hi":null,"phone":null,"email":null,"addr:street":"Shaheed Jatin Gulati Chowk, Officers Clny, Race Course","addr:housenumber":null,"name":"IRDT Auditorium"},"geometry":{"type":"Point","coordinates":[78.050272,30.3244662]}},
{"type":"Feature","properties":{"full_id":"n12595999684","osm_id":"12595999684","osm_type":"node","amenity":"community_centre","opening_hours":null,"community_centre":"shri_siya_ram_communication","addr:postcode":null,"mapillary":null,"internet_access":null,"name:etymology:wikidata":null,"name:en":null,"name:hi":null,"phone":null,"email":null,"addr:street":null,"addr:housenumber":null,"name":null},"geometry":{"type":"Point","coordinates":[79.3974373,28.9786112]}},
{"type":"Feature","properties":{"full_id":"n14096119501","osm_id":"14096119501","osm_type":"node","amenity":"community_centre","opening_hours":"24/7","community_centre":null,"addr:postcode":"244713","mapillary":null,"internet_access":null,"name:etymology:wikidata":null,"name:en":null,"name:hi":null,"phone":null,"email":null,"addr:street":"Kalash Mandap Road","addr:housenumber":null,"name":"Kalash Mandap"},"geometry":{"type":"Point","coordinates":[78.9563144,29.2013789]}}
]
}
