{
"type": "FeatureCollection",
"name": "shelter2",
"crs": { "type": "name", "properties": { "name": "urn:ogc:def:crs:OGC:1.3:CRS84" } },
"features": [
{"type":"Feature","properties":{"full_id":"n747102861","osm_id":"747102861","osm_type":"node","amenity":"shelter","name:hi":null,"description":null,"bin":null,"bench":null,"name":null,"content":null,"shelter_type":null},"geometry":{"type":"Point","coordinates":[79.4397181,29.4066129]}},
{"type":"Feature","properties":{"full_id":"n1356150439","osm_id":"1356150439","osm_type":"node","amenity":"shelter","name:hi":null,"description":null,"bin":null,"bench":null,"name":null,"content":null,"shelter_type":null},"geometry":{"type":"Point","coordinates":[78.4663398,30.8421691]}},
{"type":"Feature","properties":{"full_id":"n4277813970","osm_id":"4277813970","osm_type":"node","amenity":"shelter","name:hi":null,"description":null,"bin":null,"bench":null,"name":null,"content":null,"shelter_type":"picnic_shelter"},"geometry":{"type":"Point","coordinates":[79.5805808,30.6479965]}},
{"type":"Feature","properties":{"full_id":"n5040710622","osm_id":"5040710622","osm_type":"node","amenity":"shelter","name:hi":null,"description":null,"bin":null,"bench":null,"name":null,"content":null,"shelter_type":null},"geometry":{"type":"Point","coordinates":[79.5834107,30.6513174]}},
{"type":"Feature","properties":{"full_id":"n5040710625","osm_id":"5040710625","osm_type":"node","amenity":"shelter","name:hi":null,"description":null,"bin":null,"bench":null,"name":null,"content":null,"shelter_type":null},"geometry":{"type":"Point","coordinates":[79.5867341,30.6577299]}},
{"type":"Feature","properties":{"full_id":"n5040710627","osm_id":"5040710627","osm_type":"node","amenity":"shelter","name:hi":null,"description":null,"bin":null,"bench":null,"name":null,"content":null,"shelter_type":"rock_shelter"},"geometry":{"type":"Point","coordinates":[79.5896109,30.7221286]}},
{"type":"Feature","properties":{"full_id":"n5040736222","osm_id":"5040736222","osm_type":"node","amenity":"shelter","name:hi":null,"description":null,"bin":null,"bench":null,"name":null,"content":null,"shelter_type":"rock_shelter"},"geometry":{"type":"Point","coordinates":[79.58993,30.7188053]}},
{"type":"Feature","properties":{"full_id":"n5040737421","osm_id":"5040737421","osm_type":"node","amenity":"shelter","name:hi":null,"description":null,"bin":null,"bench":null,"name":null,"content":null,"shelter_type":"rock_shelter"},"geometry":{"type":"Point","coordinates":[79.5903667,30.7151843]}},
{"type":"Feature","properties":{"full_id":"n5869331753","osm_id":"5869331753","osm_type":"node","amenity":"shelter","name:hi":null,"description":null,"bin":null,"bench":null,"name":null,"content":"water","shelter_type":null},"geometry":{"type":"Point","coordinates":[78.0667305,30.348665]}},
{"type":"Feature","properties":{"full_id":"n6520171763","osm_id":"6520171763","osm_type":"node","amenity":"shelter","name:hi":null,"description":null,"bin":null,"bench":null,"name":"Campsite shelter","content":null,"shelter_type":null},"geometry":{"type":"Point","coordinates":[79.3116241,30.4920171]}},
{"type":"Feature","properties":{"full_id":"n6520210189","osm_id":"6520210189","osm_type":"node","amenity":"shelter","name:hi":null,"description":null,"bin":null,"bench":null,"name":null,"content":null,"shelter_type":null},"geometry":{"type":"Point","coordinates":[79.9941225,30.2515917]}},
{"type":"Feature","properties":{"full_id":"n6520213427","osm_id":"6520213427","osm_type":"node","amenity":"shelter","name:hi":null,"description":null,"bin":null,"bench":null,"name":"Laaldaru","content":null,"shelter_type":"weather_shelter"},"geometry":{"type":"Point","coordinates":[78.5482609,30.8447196]}},
{"type":"Feature","properties":{"full_id":"n6520217465","osm_id":"6520217465","osm_type":"node","amenity":"shelter","name:hi":null,"description":null,"bin":null,"bench":null,"name":"Kansai Bugyal","content":null,"shelter_type":null},"geometry":{"type":"Point","coordinates":[79.2976206,30.4867804]}},
{"type":"Feature","properties":{"full_id":"n6520222521","osm_id":"6520222521","osm_type":"node","amenity":"shelter","name:hi":null,"description":null,"bin":null,"bench":null,"name":null,"content":null,"shelter_type":null},"geometry":{"type":"Point","coordinates":[78.9353379,30.629276]}},
{"type":"Feature","properties":{"full_id":"n6520252414","osm_id":"6520252414","osm_type":"node","amenity":"shelter","name:hi":null,"description":null,"bin":null,"bench":null,"name":"Shepherd shelter","content":null,"shelter_type":null},"geometry":{"type":"Point","coordinates":[80.4975617,30.0617422]}},
{"type":"Feature","properties":{"full_id":"n6520259463","osm_id":"6520259463","osm_type":"node","amenity":"shelter","name:hi":null,"description":null,"bin":null,"bench":null,"name":null,"content":null,"shelter_type":null},"geometry":{"type":"Point","coordinates":[80.2712109,30.2127153]}},
{"type":"Feature","properties":{"full_id":"n6520261509","osm_id":"6520261509","osm_type":"node","amenity":"shelter","name:hi":null,"description":null,"bin":null,"bench":null,"name":null,"content":null,"shelter_type":null},"geometry":{"type":"Point","coordinates":[80.2713347,30.1804342]}},
{"type":"Feature","properties":{"full_id":"n6532601968","osm_id":"6532601968","osm_type":"node","amenity":"shelter","name:hi":null,"description":null,"bin":"no","bench":"no","name":null,"content":null,"shelter_type":null},"geometry":{"type":"Point","coordinates":[78.1880525,31.022896]}},
{"type":"Feature","properties":{"full_id":"n6532616062","osm_id":"6532616062","osm_type":"node","amenity":"shelter","name:hi":null,"description":null,"bin":null,"bench":null,"name":null,"content":null,"shelter_type":null},"geometry":{"type":"Point","coordinates":[78.1779294,31.0320272]}},
{"type":"Feature","properties":{"full_id":"n6532625907","osm_id":"6532625907","osm_type":"node","amenity":"shelter","name:hi":null,"description":null,"bin":null,"bench":null,"name":null,"content":null,"shelter_type":null},"geometry":{"type":"Point","coordinates":[78.180223,31.0108944]}},
{"type":"Feature","properties":{"full_id":"n7428743152","osm_id":"7428743152","osm_type":"node","amenity":"shelter","name:hi":null,"description":null,"bin":null,"bench":null,"name":null,"content":null,"shelter_type":"gazebo"},"geometry":{"type":"Point","coordinates":[78.2949274,30.1033701]}},
{"type":"Feature","properties":{"full_id":"n7832951659","osm_id":"7832951659","osm_type":"node","amenity":"shelter","name:hi":null,"description":null,"bin":null,"bench":null,"name":null,"content":null,"shelter_type":null},"geometry":{"type":"Point","coordinates":[80.2644533,30.2008325]}},
{"type":"Feature","properties":{"full_id":"n7833009775","osm_id":"7833009775","osm_type":"node","amenity":"shelter","name:hi":null,"description":null,"bin":null,"bench":null,"name":null,"content":null,"shelter_type":null},"geometry":{"type":"Point","coordinates":[79.7880374,30.4795045]}},
{"type":"Feature","properties":{"full_id":"n7835769678","osm_id":"7835769678","osm_type":"node","amenity":"shelter","name:hi":null,"description":null,"bin":null,"bench":null,"name":null,"content":null,"shelter_type":null},"geometry":{"type":"Point","coordinates":[78.882713,30.6109141]}},
{"type":"Feature","properties":{"full_id":"n7841015759","osm_id":"7841015759","osm_type":"node","amenity":"shelter","name:hi":null,"description":null,"bin":null,"bench":null,"name":null,"content":null,"shelter_type":null},"geometry":{"type":"Point","coordinates":[78.258787,31.146257]}},
{"type":"Feature","properties":{"full_id":"n8073439819","osm_id":"8073439819","osm_type":"node","amenity":"shelter","name:hi":null,"description":null,"bin":null,"bench":null,"name":null,"content":null,"shelter_type":null},"geometry":{"type":"Point","coordinates":[79.7497168,30.4968451]}},
{"type":"Feature","properties":{"full_id":"n8073442817","osm_id":"8073442817","osm_type":"node","amenity":"shelter","name:hi":null,"description":null,"bin":null,"bench":null,"name":null,"content":null,"shelter_type":null},"geometry":{"type":"Point","coordinates":[79.7308195,30.4966833]}},
{"type":"Feature","properties":{"full_id":"n8149377341","osm_id":"8149377341","osm_type":"node","amenity":"shelter","name:hi":null,"description":null,"bin":null,"bench":null,"name":null,"content":null,"shelter_type":null},"geometry":{"type":"Point","coordinates":[78.1407327,30.5868854]}},
{"type":"Feature","properties":{"full_id":"n8195695930","osm_id":"8195695930","osm_type":"node","amenity":"shelter","name:hi":null,"description":null,"bin":null,"bench":null,"name":"Cave","content":null,"shelter_type":null},"geometry":{"type":"Point","coordinates":[78.4073189,30.7049425]}},
{"type":"Feature","properties":{"full_id":"n8223867471","osm_id":"8223867471","osm_type":"node","amenity":"shelter","name:hi":null,"description":null,"bin":null,"bench":null,"name":null,"content":null,"shelter_type":null},"geometry":{"type":"Point","coordinates":[78.7613288,30.5817775]}},
{"type":"Feature","properties":{"full_id":"n8324662042","osm_id":"8324662042","osm_type":"node","amenity":"shelter","name:hi":null,"description":null,"bin":null,"bench":null,"name":null,"content":null,"shelter_type":null},"geometry":{"type":"Point","coordinates":[80.1135618,30.0792149]}},
{"type":"Feature","properties":{"full_id":"n9841505478","osm_id":"9841505478","osm_type":"node","amenity":"shelter","name:hi":null,"description":null,"bin":null,"bench":null,"name":"Rain shelter","content":null,"shelter_type":null},"geometry":{"type":"Point","coordinates":[79.0722191,30.7168494]}},
{"type":"Feature","properties":{"full_id":"n9857199417","osm_id":"9857199417","osm_type":"node","amenity":"shelter","name:hi":null,"description":null,"bin":null,"bench":null,"name":null,"content":null,"shelter_type":null},"geometry":{"type":"Point","coordinates":[79.055968,30.6934532]}},
{"type":"Feature","properties":{"full_id":"n10941749133","osm_id":"10941749133","osm_type":"node","amenity":"shelter","name:hi":null,"description":null,"bin":null,"bench":null,"name":null,"content":null,"shelter_type":null},"geometry":{"type":"Point","coordinates":[78.1423139,31.0505531]}},
{"type":"Feature","properties":{"full_id":"n10941781180","osm_id":"10941781180","osm_type":"node","amenity":"shelter","name:hi":null,"description":null,"bin":null,"bench":null,"name":"Cave shelter","content":null,"shelter_type":null},"geometry":{"type":"Point","coordinates":[78.1810619,31.013094]}},
{"type":"Feature","properties":{"full_id":"n10959438891","osm_id":"10959438891","osm_type":"node","amenity":"shelter","name:hi":null,"description":null,"bin":null,"bench":null,"name":"Cave shelter","content":null,"shelter_type":null},"geometry":{"type":"Point","coordinates":[78.6573811,30.6918086]}},
{"type":"Feature","properties":{"full_id":"n11160126123","osm_id":"11160126123","osm_type":"node","amenity":"shelter","name:hi":null,"description":"Snow shelter, space for 4-6 mattresses, just ground, no facilities. Door inside, for (slight) protection against cold. If you intend to stay here overnight, you probably better arrive after the park staff has left.","bin":null,"bench":null,"name":null,"content":null,"shelter_type":"basic_hut"},"geometry":{"type":"Point","coordinates":[79.5956357,30.705652]}},
{"type":"Feature","properties":{"full_id":"n11160127888","osm_id":"11160127888","osm_type":"node","amenity":"shelter","name:hi":null,"description":null,"bin":null,"bench":null,"name":null,"content":null,"shelter_type":"picnic_shelter"},"geometry":{"type":"Point","coordinates":[79.5969513,30.7049106]}},
{"type":"Feature","properties":{"full_id":"n11163209946","osm_id":"11163209946","osm_type":"node","amenity":"shelter","name:hi":null,"description":null,"bin":null,"bench":null,"name":null,"content":null,"shelter_type":"picnic_shelter"},"geometry":{"type":"Point","coordinates":[79.5791293,30.6441306]}},
{"type":"Feature","properties":{"full_id":"n11163213526","osm_id":"11163213526","osm_type":"node","amenity":"shelter","name:hi":null,"description":null,"bin":null,"bench":null,"name":null,"content":null,"shelter_type":"picnic_shelter"},"geometry":{"type":"Point","coordinates":[79.5862271,30.6556206]}},
{"type":"Feature","properties":{"full_id":"n11508050823","osm_id":"11508050823","osm_type":"node","amenity":"shelter","name:hi":null,"description":null,"bin":null,"bench":null,"name":null,"content":null,"shelter_type":null},"geometry":{"type":"Point","coordinates":[79.2883012,30.474654]}},
{"type":"Feature","properties":{"full_id":"n11508050824","osm_id":"11508050824","osm_type":"node","amenity":"shelter","name:hi":null,"description":null,"bin":null,"bench":null,"name":null,"content":null,"shelter_type":null},"geometry":{"type":"Point","coordinates":[79.2872954,30.4745205]}},
{"type":"Feature","properties":{"full_id":"n11508050825","osm_id":"11508050825","osm_type":"node","amenity":"shelter","name:hi":null,"description":null,"bin":null,"bench":null,"name":null,"content":null,"shelter_type":null},"geometry":{"type":"Point","coordinates":[79.2847441,30.4731635]}},
{"type":"Feature","properties":{"full_id":"n11508050826","osm_id":"11508050826","osm_type":"node","amenity":"shelter","name:hi":null,"description":null,"bin":null,"bench":null,"name":null,"content":null,"shelter_type":null},"geometry":{"type":"Point","coordinates":[79.2862795,30.4724931]}},
{"type":"Feature","properties":{"full_id":"n11836680658","osm_id":"11836680658","osm_type":"node","amenity":"shelter","name:hi":null,"description":null,"bin":null,"bench":null,"name":null,"content":null,"shelter_type":"gazebo"},"geometry":{"type":"Point","coordinates":[78.9040757,29.5729186]}},
{"type":"Feature","properties":{"full_id":"n11972428760","osm_id":"11972428760","osm_type":"node","amenity":"shelter","name:hi":null,"description":null,"bin":null,"bench":null,"name":null,"content":null,"shelter_type":null},"geometry":{"type":"Point","coordinates":[78.6715228,30.6264653]}},
{"type":"Feature","properties":{"full_id":"n11972462298","osm_id":"11972462298","osm_type":"node","amenity":"shelter","name:hi":null,"description":null,"bin":null,"bench":null,"name":null,"content":null,"shelter_type":null},"geometry":{"type":"Point","coordinates":[78.6693851,30.6188939]}},
{"type":"Feature","properties":{"full_id":"n11972465103","osm_id":"11972465103","osm_type":"node","amenity":"shelter","name:hi":null,"description":null,"bin":null,"bench":null,"name":null,"content":null,"shelter_type":null},"geometry":{"type":"Point","coordinates":[78.6761676,30.7089145]}},
{"type":"Feature","properties":{"full_id":"n11972483824","osm_id":"11972483824","osm_type":"node","amenity":"shelter","name:hi":null,"description":null,"bin":null,"bench":null,"name":null,"content":null,"shelter_type":null},"geometry":{"type":"Point","coordinates":[78.7530323,30.7042189]}},
{"type":"Feature","properties":{"full_id":"n11972506986","osm_id":"11972506986","osm_type":"node","amenity":"shelter","name:hi":null,"description":null,"bin":null,"bench":null,"name":"Metal roof","content":null,"shelter_type":null},"geometry":{"type":"Point","coordinates":[78.6610812,30.6115783]}},
{"type":"Feature","properties":{"full_id":"n11972512308","osm_id":"11972512308","osm_type":"node","amenity":"shelter","name:hi":null,"description":null,"bin":null,"bench":null,"name":null,"content":null,"shelter_type":null},"geometry":{"type":"Point","coordinates":[78.668543,30.6159463]}},
{"type":"Feature","properties":{"full_id":"n12745253001","osm_id":"12745253001","osm_type":"node","amenity":"shelter","name:hi":null,"description":null,"bin":null,"bench":null,"name":"Nirmal Baba Ashram","content":null,"shelter_type":null},"geometry":{"type":"Point","coordinates":[79.0509976,30.9500585]}},
{"type":"Feature","properties":{"full_id":"n12750131001","osm_id":"12750131001","osm_type":"node","amenity":"shelter","name:hi":"प्राचीन वाल्मीकि लव कुश सीताबनी आश्रम","description":null,"bin":null,"bench":null,"name":"Prachin Valmiki Luv Kush Sitabani Ashram","content":null,"shelter_type":null},"geometry":{"type":"Point","coordinates":[79.2223093,29.4082371]}},
{"type":"Feature","properties":{"full_id":"n13164657704","osm_id":"13164657704","osm_type":"node","amenity":"shelter","name:hi":null,"description":null,"bin":null,"bench":null,"name":"gazebo","content":null,"shelter_type":null},"geometry":{"type":"Point","coordinates":[78.2680863,31.0861732]}},
{"type":"Feature","properties":{"full_id":"n13164788506","osm_id":"13164788506","osm_type":"node","amenity":"shelter","name:hi":null,"description":null,"bin":null,"bench":null,"name":null,"content":null,"shelter_type":null},"geometry":{"type":"Point","coordinates":[78.3931165,31.1219347]}},
{"type":"Feature","properties":{"full_id":"n13164793814","osm_id":"13164793814","osm_type":"node","amenity":"shelter","name:hi":null,"description":null,"bin":null,"bench":null,"name":"Rainbasera","content":null,"shelter_type":"weather_shelter"},"geometry":{"type":"Point","coordinates":[78.4014168,31.1158751]}},
{"type":"Feature","properties":{"full_id":"n13164802415","osm_id":"13164802415","osm_type":"node","amenity":"shelter","name:hi":null,"description":null,"bin":null,"bench":null,"name":null,"content":null,"shelter_type":"weather_shelter"},"geometry":{"type":"Point","coordinates":[78.3775505,31.1237712]}}
]
}
